,Name,City,Country,Arena,Capactity,Logo URL,Division,City,State,,,,,,,,,,,,,,,,,,,,
Team,Hawks,Atlanta,USA,Philips Arena,18118,https://d2p3bygnnzw9w3.cloudfront.net/req/201611171/tlogo/bbr/ATL-2017.png,Southeast,Atlanta,Georgia,,,,,,,,,,,,,,,,,,,,
Team,Celtics,Boston,USA,TD Garden,18624,https://d2p3bygnnzw9w3.cloudfront.net/req/201611171/tlogo/bbr/BOS-2017.png,Atlantic,Boston,Massachusetts,,,,,,,,,,,,,,,,,,,,
Team,Nets,Brooklyn,USA,Barclays Center,17732,https://d2p3bygnnzw9w3.cloudfront.net/req/201611171/tlogo/bbr/BRK-2017.png,Atlantic,Brooklyn,New York,,,,,,,,,,,,,,,,,,,,
Team,Hornets,Charlotte,USA,Spectrum Center,19077,https://d2p3bygnnzw9w3.cloudfront.net/req/201611171/tlogo/bbr/CHA.png,Southeast,Charlotte,North Carolina,,,,,,,,,,,,,,,,,,,,
Team,Bulls,Chicago,USA,United Center,20917,https://d2p3bygnnzw9w3.cloudfront.net/req/201612021/tlogo/bbr/CHI-2017.png,Central,Chicago,Illinois,,,,,,,,,,,,,,,,,,,,
Team,Cavaliers,Cleveland,USA,Quicken Loans Arena,20562,https://d2p3bygnnzw9w3.cloudfront.net/req/201612021/tlogo/bbr/CLE-2017.png,Central,Cleveland,Ohio,,,,,,,,,,,,,,,,,,,,
Team,Mavericks,Dallas,USA,American Airlines Center,19200,https://d2p3bygnnzw9w3.cloudfront.net/req/201612021/tlogo/bbr/DAL-2017.png,Southwest,Dallas,Texas,,,,,,,,,,,,,,,,,,,,
Team,Nuggets,Denver,USA,Pepsi Center,19155,https://d2p3bygnnzw9w3.cloudfront.net/req/201612021/tlogo/bbr/DEN-2017.png,Northwest,Denver,Colorado,,,,,,,,,,,,,,,,,,,,
Team,Pistons,Detroit,USA,The Palace of Auburn Hills,19971,https://d2p3bygnnzw9w3.cloudfront.net/req/201612021/tlogo/bbr/DET-2017.png,Central,Auburn Hills,Michigan,,,,,,,,,,,,,,,,,,,,
Team,Warriors,Golden State,USA,Oracle Arena,19596,https://d2p3bygnnzw9w3.cloudfront.net/req/201612021/tlogo/bbr/GSW-2017.png,Pacific,Oakland,California,,,,,,,,,,,,,,,,,,,,
Team,Rockets,Houston,USA,Toyota Center,18055,https://d2p3bygnnzw9w3.cloudfront.net/req/201612021/tlogo/bbr/HOU-2017.png,Southwest,Houston,Texas,,,,,,,,,,,,,,,,,,,,
Team,Pacers,Indiana,USA,Bankers Life Fieldhouse,18165,https://d2p3bygnnzw9w3.cloudfront.net/req/201612021/tlogo/bbr/IND-2017.png,Central,Indianapolis,Indiana,,,,,,,,,,,,,,,,,,,,
Team,Clippers,Los Angeles,USA,Staples Center,19060,https://d2p3bygnnzw9w3.cloudfront.net/req/201612021/tlogo/bbr/LAC-2017.png,Pacific,Los Angeles,California,,,,,,,,,,,,,,,,,,,,
Team,Lakers,Los Angeles,USA,Staples Center,18997,https://d2p3bygnnzw9w3.cloudfront.net/req/201612021/tlogo/bbr/LAL-2017.png,Pacific,Los Angeles,California,,,,,,,,,,,,,,,,,,,,
Team,Grizzlies,Memphis,USA,FedExForum,18119,https://d2p3bygnnzw9w3.cloudfront.net/req/201612021/tlogo/bbr/MEM-2017.png,Southwest,Memphis,Tennessee,,,,,,,,,,,,,,,,,,,,
Team,Heat,Miami,USA,American Airlines Arena,19600,https://d2p3bygnnzw9w3.cloudfront.net/req/201612021/tlogo/bbr/MIA-2017.png,Southeast,Miami,Florida,,,,,,,,,,,,,,,,,,,,
Team,Bucks,Milwaukee,USA,BMO Harris Bradley Center,18717,https://d2p3bygnnzw9w3.cloudfront.net/req/201612021/tlogo/bbr/MIL-2017.png,Central,Milwaukee,Wisconsin,,,,,,,,,,,,,,,,,,,,
Team,Timberwolves,Minnesota,USA,Target Center,19356,https://d2p3bygnnzw9w3.cloudfront.net/req/201612021/tlogo/bbr/MIN-2017.png,Northwest,Minneapolis,Minnesota,,,,,,,,,,,,,,,,,,,,
Team,Pelicans,New Orleans,USA,Smoothie King Center,16867,https://d2p3bygnnzw9w3.cloudfront.net/req/201612021/tlogo/bbr/NOP-2017.png,Southwest,New Orleans,Louisiana,,,,,,,,,,,,,,,,,,,,
Team,Knicks,New York,USA,Madison Square Garden,19812,https://d2p3bygnnzw9w3.cloudfront.net/req/201612021/tlogo/bbr/NYK-2017.png,Atlantic,New York City,New York,,,,,,,,,,,,,,,,,,,,
Team,Thunder,Oklahoma City,USA,Chesapeake Energy Arena,18203,https://d2p3bygnnzw9w3.cloudfront.net/req/201612021/tlogo/bbr/OKC-2017.png,Northwest,Oklahoma City,Oklahoma,,,,,,,,,,,,,,,,,,,,
Team,Magic,Orlando,USA,Amway Center,18846,https://d2p3bygnnzw9w3.cloudfront.net/req/201612021/tlogo/bbr/ORL-2017.png,Southeast,Orlando,Florida,,,,,,,,,,,,,,,,,,,,
Team,76ers,Philadelphia,USA,Wells Fargo Center,20328,https://d2p3bygnnzw9w3.cloudfront.net/req/201612021/tlogo/bbr/PHI-2017.png,Atlantic,Philadelphia,Pennsylvania,,,,,,,,,,,,,,,,,,,,
Team,Suns,Phoenix,USA,Talking Stick Resort Arena,18422,https://d2p3bygnnzw9w3.cloudfront.net/req/201612021/tlogo/bbr/PHO-2017.png,Pacific,Phoenix,Arizona,,,,,,,,,,,,,,,,,,,,
Team,Trail Blazers,Portland,USA,Moda Center,19980,https://d2p3bygnnzw9w3.cloudfront.net/req/201612021/tlogo/bbr/POR-2017.png,Northwest,Portland,Oregon,,,,,,,,,,,,,,,,,,,,
Team,Kings,Sacramento,USA,Golden 1 Center,17500,https://d2p3bygnnzw9w3.cloudfront.net/req/201612021/tlogo/bbr/SAC-2017.png,Pacific,Sacramento,California,,,,,,,,,,,,,,,,,,,,
Team,Spurs,San Antonio,USA,AT&T Center,18418,https://d2p3bygnnzw9w3.cloudfront.net/req/201612021/tlogo/bbr/SAS-2017.png,Southwest,San Antonio,Texas,,,,,,,,,,,,,,,,,,,,
Team,Raptors,Toronto,Canada,Air Canada Centre,19800,https://d2p3bygnnzw9w3.cloudfront.net/req/201612021/tlogo/bbr/TOR-2017.png,Atlantic,Toronto,Canada,,,,,,,,,,,,,,,,,,,,
Team,Jazz,Utah,USA,Vivint Smart Home Arena,19911,https://d2p3bygnnzw9w3.cloudfront.net/req/201612021/tlogo/bbr/UTA-2017.png,Northwest,Salt Lake City,Utah,,,,,,,,,,,,,,,,,,,,
Team,Wizards,Washington,USA,Verizon Center,20000,https://d2p3bygnnzw9w3.cloudfront.net/req/201612021/tlogo/bbr/WAS-2017.png,Southeast,Washington,D.C.,,,,,,,,,,,,,,,,,,,,
NewFranchiseLogo,,,,,,https://d2p3bygnnzw9w3.cloudfront.net/req/201612021/tlogo/bbr/SEA-2008.png,,,,,,,,,,,,,,,,,,,,,,,
,,,,,,,,,,,,,,,,,,,,,,,,,,,,,
Type,FirstName,Last Name,Position,Age,Height,Weight,Team ID,Defence,TurnOvers,FTA,FTPerc,2PTA,2PTPerc,3PTA,ThreePerc,OffReb,Fame,DefReb,FastBreak,Assists,Personality,Potential,Steals,Blocks,Stamina,Trait,,,
players,Kent,Bazemore,SG,29,196,201,0,76,1.8,2.6,0.726,5.8,0.465,4.5,0.32,0.6,20,3.3,60,2.3,80,73,1.3,0.6,96,,,,
players,DeAndre',Bembry,SG,24,198.12,210,0,64,1.7,1.7,0.64,5.4,0.508,2.1,0.289,0.7,16,3.7,60,2.5,70,88,0.2,0,65,,,,
players,Trae,Young,PG,20,188,180,0,60,3.8,5.1,0.829,9.6,0.477,6,0.324,1.8,60,2.9,86,8.1,70,90,0.9,0.2,80,R,,,
players,Justin,Andreson,SF,25,198,230,0,64,0.5,0.7,0.743,1.7,0.5,1.6,0.312,1.5,20,1.3,40,0.5,70,46,0.5,0.3,67,,,,
players,Kevin,Huerter,SG,24,201,190,0,67,1.5,0.7,0.732,4.1,0.419,4.7,0.385,0.8,21,2.5,74,2.9,70,82,0.9,0.3,70,R,,,
players,Alex,Len,C,25,215.9,260,0,73,1.3,2.8,0.648,5.8,0.494,2.6,0.363,2.1,16,3.5,60,1.1,70,75,0.4,0.9,95,,,,
players,John,Collins,PF,21,208,235,0,70,2,4.4,0.763,11,0.609,2.6,0.348,3.6,50,6.2,70,2,68,88,0.4,0.6,80,,,,
players,Omari,Spellman,PF,21,206,240,0,70,0.7,1,0.711,2.5,0.466,2.8,0.344,1.6,54,2.7,60,1,70,80,0.6,0.5,73,R,,,
players,Miles,Plumlee,C,30,210.82,249,0,64,0.7,1.1,0.629,3,0.667,0,0,2,17,6,28,0.5,70,70,0.3,0.3,68,,,,
players,Lamar,Patterson,SG,25,195.58,225,0,64,0.7,1,0.667,2,0.333,0.7,0.235,0.3,15,1,25,0,70,79,0.2,0.1,70,,,,
players,Vince,Carter,SG,40,198.12,220,0,73,0.6,0.9,0.712,2,0.48,4.2,0.389,0.4,88,2.1,30,1.1,90,34,0.6,0.4,67,HF,,,
players,Jaylen,Adams,PG,22,188,190,0,67,0.8,0.3,0.778,1.1,0.361,2.2,0.338,0.3,38,1.4,70,1.9,72,76,0.4,0.1,70,R,,,
players,Alex,Poythress,PF,25,206,235,0,70,0.6,1.4,0.621,2.8,0.534,1.1,0.391,1.4,15,2.2,27,0.8,75,70,0.2,0.5,40,,,,
players,Isaac,Humphries,C,20,213,255,0,47,0,0,0,2.2,0.273,2.2,0.273,0.8,18,1.4,46,0,70,58,0.2,0,49,R,,,
players,Dewayne,Dedmon,C,29,213.36,245,0,90,1.3,1.8,0.814,4.8,0.57,3.4,0.382,1.6,32,5.9,40,1.4,72,73,1.1,1.1,87,,,,
players,Taurean,Prince,SF,24,203.2,220,0,80,1.8,2.1,0.819,5.1,0.498,5.7,0.39,0.4,15,3.2,50,2.1,70,88,1,0.3,58,,,,
players,Miles,Plumlee,C,30,210.82,249,3,64,0.7,1.1,0.629,3,0.667,0,0,2,17,6,28,0.5,70,70,0.3,0.3,68,,,,
,,,,,,,,,,,,,,,,,,,,,,,,,,,,,
players,Kyrie,Irving,PG,26,190.5,193,1,64,2.6,3.7,0.873,12,0.533,6.5,0.401,1.1,100,3.9,70,6.90,85,82,1.5,0.5,89,,,,
players,Jaylen,Brown,SG,22,200.66,225,1,76,1.3,2.7,0.658,7,0.529,3.7,0.344,0.9,27,3.4,60,1.4,70,94,0.9,0.4,98,,,,
players,Jayson,Tatum,SF,20,203.2,204,1,77,1.5,2.9,0.85,9.2,0.482,3.9,0.373,0.9,65,5.2,57,2.1,70,100,1.1,0.7,95,,,,
players,Semi,Green,SG,31,200.66,241,1,70,0.3,0.7,0.615,1.2,0.565,1.6,0.315,0.4,22,1.1,50,0.4,70,61,0.2,0.1,57,,,,
players,Al,Horford,C,32,208.28,245,1,85,1.5,1.4,0.821,7.6,0.604,3,0.36,1.8,100,5,35,4.2,80,64,0.9,1.3,74,PT,,,
players,Brad ,Wanamaker,PG,29,193,210,1,49,0.5,0.8,0.857,1.8,0.515,1.1,0.41,0.1,17,1.1,50,1.6,70,70,0.3,0.1,25,,,,
players,Marcus,Morris,PF,29,205.74,235,1,64,1.2,2.3,0.844,6.1,0.508,5.2,0.375,1,17,5.1,40,1.5,75,73,0.6,0.3,98,,,,
players,Robert,Williams,PF,21,208,240,1,70,0.3,0.5,0.6,1.6,0.706,0,0,0.8,22,1.7,60,0.2,70,80,0.3,1.3,98,R,,,
players,Guershon,Yabusele,PF,23,203.2,260,1,61,0.4,0.5,0.682,1.2,0.531,0.7,0.321,0.6,16,0.7,25,0.4,70,88,0.2,0.2,30,,,,
players,Aron,Baynes,C,32,208.28,260,8,73,0.7,1.4,0.868,3.5,0.494,1.2,0.344,1.2,17,2.7,27,1.1,70,64,0.3,0.4,94,,,,
players,Terry,Rozier,PG,24,187.96,190,1,72,0.9,1.2,0.785,4.2,0.422,4.3,0.353,0.4,18,3.5,57,2.9,75,88,0.9,0.3,89,,,,
players,Marcus,Smart,SG,24,193.04,220,1,90,1.5,1.6,0.806,2.8,0.511,4.3,0.364,0.7,27,2.2,70,4,60,88,1.8,0.4,94,,,,
players,Gordon,Hayward,PF,28,203.2,226,1,79,1.5,2.6,0.834,5.6,0.542,3.2,0.333,0.7,100,3.8,61,3.5,75,76,0.9,0.3,85,,,,
players,PJ,Dozier,SG,22,198,205,1,61,0,0.3,0.5,2.2,0.462,1.3,2.5,1,16,1.8,40,0.8,75,91,0.3,0,30,,,,
players,Daniel ,Theis,C,26,203,243,1,70,0.5,1.2,0.737,3,0.603,1,0.388,1.3,17,2.1,30,1,70,73,0.3,0.6,62,,,,
,,,,,,,,,,,,,,,,,,,,,,,,,,,,,
players,D'Angelo,Russell,PG,22,195.58,195,2,58,3.1,2.5,0.78,10.9,0.482,7.8,0.369,0.7,100,3.2,70,7,80,94,1.2,0.2,71,,,,
players,DeMarre,Carroll,PF,32,203.2,215,2,67,1.1,3.6,0.76,4,0.457,4.6,0.342,1,41,4.2,63,1.3,70,64,0.5,0.1,89,,,,
players,Jarrett,Allen,C,20,210.82,224,2,68,1.3,3.5,0.709,6.5,0.629,0.6,0.133,2.4,15,6,59,1.4,70,100,0.5,1.5,80,,,,
players,Spencer,Dinwiddie,PG,25,198.12,200,2,52,2.2,5.2,0.806,6.7,0.528,5.4,0.335,0.4,15,2.1,60,4.6,70,85,0.6,0.3,100,,,,
players,Treveon,Graham,SG,25,196,225,2,52,0.5,0.6,0.818,1.8,0.413,3.7,0.297,0.7,17,2.4,50,1,70,70,0.4,0.2,71,,,,
players,Dzanan,Musa,SF,19,203.2,220,2,60,0.4,0.2,0,1.3,0.667,1.1,0.1,0.1,15,0.4,38,0.2,70,88,0.2,0,58,R,,,
players,Joe,Harris,SG,25,198.12,219,2,52,1.6,1.8,0.827,4.8,0.527,5.1,0.471,0.7,17,3.1,59,2.4,70,79,0.5,0.2,89,,,,
players,Rondae,Hollis-Jefferson,SF,24,200.66,220,2,70,1.2,3.1,0.645,7.4,0.436,0.8,0.184,1.4,17,3.8,51,1.6,75,88,0.7,0.5,91,,,,
players,Theo,Pinson,SG,27,206,208,2,55,1,1.2,0.864,1.5,0.481,2.6,0.261,0.2,19,1.8,65,1.2,75,73,0.3,0,98,,,,
players,Caris,LeVert,SG,24,200.66,203,2,58,1.7,3.1,0.691,8.2,0.483,3.9,0.315,0.9,17,2.9,68,3.9,72,88,1.1,0.4,70,,,,
players,Rodions,Kurucs,SF,20,203.2,190,2,63,1.2,1.5,0.783,4.2,0.543,2.9,0.315,0.9,15,3,46,0.8,70,97,0.7,0.4,80,R,,,
players,Jared,Dudley,SF,33,200.66,225,2,58,0.7,0.8,0.696,1.5,0.545,2.6,0.351,0.6,16,2.1,38,1.4,70,61,0.6,0.3,68,,,,
players,Allen,Crabbe,SG,26,198.12,210,2,49,1.1,1.3,0.732,2.7,0.342,6,0.378,0.4,17,3.1,48,1.1,70,82,0.5,0.3,100,,,,
players,Ed,Davis,C,29,208.28,240,2,61,0.8,2,0.617,3.7,0.62,0,0,2.7,17,5.9,26,0.8,75,73,0.4,0.4,84,,,,
players,Shabazz,Napier,PG,27,185.42,175,2,67,1.2,2.5,0.833,3.7,0.449,4.1,0.333,0.3,15,1.5,50,2.6,70,79,0.7,0.3,63,,,,
players,Alan ,Williams,C,26,203,265,2,70,0.8,2.1,0.626,2.4,0.509,0.2,0,1.7,17,3.8,30,0.6,70,73,0.6,0.6,62,,,,
,,,,,,,,,,,,,,,,,,,,,,,,,,,,,
players,Nicolas,Batum,SG,30,203.2,200,3,65,1.6,1.2,0.865,3.5,0.519,4,0.389,0.9,45,4.3,46,3.3,70,70,0.9,0.6,93,IH,,,
players,Malik,Monk,SG,20,193.04,185,3,57,1.2,1.4,0.882,3.5,0.461,4.5,0.33,0.2,45,1.7,45,1.6,70,97,0.5,0.3,90,,,,
players,Miles,Bridges,SG,20,198.12,220,3,64,0.6,1,0.753,3.9,0.553,2.5,0.325,0.8,15,3.2,50,1.2,70,85,0.7,0.6,50,R,,,
players,Frank,Kaminsky III,C,25,213.36,242,3,69,0.9,2.3,0.738,3.4,0.463,3,0.36,0.8,20,2.6,30,1.3,70,85,0.3,0.3,96,,,,
players,Michael,Kidd-Gilchrist,SF,25,200.66,232,3,80,0.7,1.9,0.772,4.5,0.498,0.7,0.34,1.4,23,2.5,57,1,70,85,0.5,0.6,98,,,,
players,Jeremy,Lamb,SG,26,195.58,185,3,79,1,3.3,0.888,8.2,0.487,4.2,0.348,0.8,17,4.7,60,2.2,70,82,1,0.4,70,,,,
players,Devonte',Graham,PG,23,187.96,175,3,54,0.7,1,0.761,2.1,0.421,2.6,0.281,0.2,15,1.2,40,2.6,70,91,0.5,0,65,R,,,
players,Dwayne,Bacon,SG,23,195.58,202,3,64,0.4,1.1,0.739,4,0.494,2,0.437,0.2,15,1.9,40,1.1,70,91,0.3,0.1,65,,,,
players,Tony,Parker,PG,36,187.96,185,3,60,1.3,2.2,0.734,7.4,0.485,0.9,0.225,0.3,100,1.2,42,3.7,70,52,0.4,0.1,71,HF,,,
players,Shelvin,Mack,PG,28,190.5,203,3,73,1.2,1.5,0.69,4.8,0.429,2.3,0.354,0.3,16,1.5,40,3.2,70,76,0.8,0.1,88,,,,
players,Willy,Hernangomez,C,24,210.82,240,3,73,1,2.5,0.694,4.4,0.539,0.7,0.385,2,25,3.3,33,1,70,88,0.3,0.3,83,,,,
players,Kemba,Walker,PG,28,185.42,172,3,70,2.6,5.5,0.845,11.6,0.494,8.9,0.356,0.6,100,3.8,66,5.9,85,76,1.2,0.4,98,HH,,,
players,Marvin,Williams,PF,32,205.74,237,3,73,0.6,1.1,0.767,3.6,0.5,5.1,0.367,1,19,4.4,39,1.2,75,64,0.9,0.8,87,,,,
players,Bismack,Biyombo,C,26,205.74,255,3,76,0.6,1.7,0.637,2.9,0.571,0,0,1.5,22,3.1,36,0.6,85,82,0.2,0.8,98,IH,,,
players,Cody,Zeller,C,26,213.36,240,3,79,1.3,2.9,0.787,6.6,0.57,0.4,0.273,2.2,21,4.6,43,2.1,75,82,0.8,0.8,84,,,,
,,,,,,,,,,,,,,,,,,,,,,,,,,,,,
players,Otto,Porter,SF,25,203.2,198,4,73,1.2,1.7,0.813,6.9,0.504,4.6,0.406,1,25,4.6,57,2.1,70,85,1.5,0.6,90,PT,,,
players,Wendell,Carter,C,19,208.3,255,4,74,1.5,2.5,0.795,7.7,0.513,0.7,0.188,2,51,5,38,1.8,43,88,0.6,1.3,71,R,,,
players,Zach,LaVine,SG,23,195.58,189,4,52,3.4,5,0.832,12.4,0.504,5.5,0.374,0.6,100,4,87,4.5,80,91,1,0.4,75,SP,,,
players,Cristiano,Felicio,C,26,205.74,275,4,73,0.6,1.2,0.685,2.9,0.543,0.1,0,1.3,19,2.3,30,0.6,70,82,0.2,0.1,83,,,,
players,Timothe,Luwawu-Cabarrot,SF,23,198.12,205,4,67,0.6,1.2,0.771,2.8,0.469,3.2,0.33,0.2,18,2.5,36,0.8,70,91,0.5,0.2,69,,,,
players,Kris,Dunn,PG,24,193.04,210,4,76,2.3,2.5,0.797,8.9,0.441,2.1,0.354,0.4,19,3.7,60,6,70,88,1.5,0.5,85,,,,
players,Robin,Lopez,C,30,213.36,255,4,70,1.3,1.7,0.724,6.8,0.589,0.4,0.226,1.9,23,2,30,1.2,75,70,0.1,1.1,80,,,,
players,Lauri,Markkanen,PF,21,213.36,225,4,65,1.6,3.8,0.872,8.9,0.479,6.4,0.362,1.4,55,7.6,35,1.4,70,97,0.7,0.6,90,,,,
players,Wayne ,Selden,SG,24,196,230,4,64,1.3,1.5,0.714,4.9,0.455,2.6,0.325,0.5,25,2.7,50,1.7,70,79,0.5,0.2,88,,,,
players,Chandler,Hutchison,SF,22,201,197,4,66,0.6,0.9,0.605,3.6,0.516,1.1,0.28,0.7,17,3.5,31,0.8,75,91,0.5,0.1,63,R,,,
players,Antonio,Blakeney,SG,22,193,192,4,50,0.6,1.3,0.658,5.4,0.426,1.6,0.396,0.1,67,1.7,37,0.7,25,64,0.2,0.2,70,,,,
players,Denzel,Valentine,SG,24,198.12,212,4,73,1.3,0.7,0.745,4.6,0.45,4.8,0.386,0.6,18,4.5,40,3.2,70,85,0.8,0.1,56,,,,
players,Ryan,Arcidiacono,PG,24,192,200,4,64,0.8,1.3,0.873,2.5,0.527,2.7,0.373,0.3,11,3.4,60,3.3,85,49,0.8,0,60,,,,
players,Walt ,Lemon Jr.,PG,26,190,180,4,68,1.3,1.3,0.714,8.8,0.433,0.5,0.5,0.4,17,2.3,59,3.2,70,88,1,0.2,50,,,,
,,,,,,,,,,,,,,,,,,,,,,,,,,,,,
players,Larry,Nance Jr,C,26,206.1,230,5,75,1.4,2,0.716,5.7,0.567,1.5,0.335,2.5,28,5.7,40,3.2,60,71,1.5,0.6,60,,,,
players,Channing,Frye,C,35,210.82,255,5,59,0.7,1,0.818,1.1,0.289,2.2,0.405,0.1,61,1.3,32,0.6,70,55,0.4,0.5,85,EX,,,
Rookies,Collin,Sexton,PG,20,188.5,185,5,51,2.3,3.1,0.839,11.1,0.44,3.6,0.402,0.7,30.5,2.2,91,3,58,84,0.5,0.1,83,R,,,
players,Jordan,Clarkson,SG,26,197.6,185,5,60,1.7,2.4,0.844,9.1,0.524,5.5,0.324,1,65,2.3,89,2.4,66,72,0.7,0.2,83,SP,,,
players,Nik,Stauskas,SG,25,198.12,205,5,64,0.5,1.2,0.893,1.9,0.283,2.6,0.429,0.3,21,1.6,43,0.8,70,78,0.3,0.1,80,,,,
players,Ante,Zizic,C,22,212.6,240,5,67,1,2.2,0.705,5.6,0.553,0,0,1.8,11,3.6,42,0.9,50,66.2,0.2,0.4,54,,,,
players,John,Henson,C,28,210.82,229,5,76,1,2.1,0.713,5.5,0.512,2.2,0.355,1.5,23,3.8,29,1.1,70,76,0.5,1.3,93,,,,
players,Brandon,Knight,PG,27,190.5,189,5,52,0.9,0.9,0.783,4.3,0.448,3.6,0.371,0.3,17,1.5,58,2.3,72,79,0.7,0.1,70,,,,
players,Kevin,Love,PF,30,208.28,251,5,65,1.9,5.2,0.904,6.2,0.412,6.7,0.361,1.5,100,9.4,42,2.2,80,70,0.3,0.2,87,PT,,,
players,Jaron,Blossomgame,SF,25,205.5,220,5,67,0.4,0.5,0.769,2.5,0.552,1.4,0.255,1,18,2.7,52,0.5,92,53,0.3,0.3,52,,,,
players,Matthew,Dellavedova,PG,28,193.04,198,5,55,1.6,1.3,0.792,2.9,0.5,3.3,0.336,0.2,39,1.7,48,4.2,70,76,0.3,0.1,89,HH,,,
players,J.R.,Smith,SG,33,198.12,225,5,67,0.7,0.4,0.778,2.2,0.261,6.6,0.362,0.4,100,1.8,46,1.2,20,61,1.2,0.4,45,EX,,,
players,Tristan,Thompson,C,27,205.74,238,5,76,1.4,2.5,0.642,8.8,0.529,0,0,4,100,6.2,39,2,75,79,0.7,0.4,90,IH,,,
players,Marquese,Chriss,PF,21,208.28,233,5,64,0.9,1.4,0.684,3.3,0.641,2.1,0.263,1.2,17,3,60,0.6,75,97,0.6,0.3,85,,,,
players,Cedi,Osman,SF,23,207,215,5,68,1.5,2.4,0.779,6.2,0.489,4.9,0.348,0.6,20,4.1,57,2.6,80,80,0.8,0.1,70,IH,,,
players,David,Nwaba,SG,26,193,220,5,73,0.6,1.7,0.682,3.7,0.545,1.5,0.32,0.8,12,2.4,70,1.1,80,73,0.7,0.3,80,,,,
,,,,,,,,,,,,,,,,,,,,,,,,,,,,,
players,Justin,Jackson,SF,23,203,210,6,64,0.2,1,0.724,3.6,0.577,3,0.372,0.7,18,1.6,48,1,80,80,0.3,0,75,,,,
players,J.J.,Barea,PG,34,182.88,185,6,56,1.9,2.1,0.705,6.8,0.479,3.4,0.297,0.3,21,2.2,60,5.6,70,58,0.6,0,45,,,,
players,Kristaps,Porzingis,PF,22,220.98,240,6,70,1.9,5.7,0.783,13.8,0.454,4.8,0.395,1.3,100,5.3,55,1.2,75,91,0.8,2.4,85,IH,,,
players,Maxi,Kleber,PF,27,213.36,260,6,77,0.8,1,0.784,2.4,0.583,3.1,0.353,1.3,26,3.4,25,1,75,58,0.5,1.1,52,IH,,,
players,Nicolas,Brussino,SG,28,201,215,6,63,0.4,0.5,0.789,0.8,0.573,2.2,0.429,0.2,16,1.3,40,0.5,70,85,0.1,0.1,65,R,,,
players,Courtney,Lee,SG,33,195.58,200,6,52,0.4,0.3,0.714,2,0.488,1.8,0.282,0.1,26,1.1,45,1,60,61,0.6,0,68,,,,
players,Jalen,Brunson,PG,22,190,190,6,43,1.2,1.6,0.725,5.3,0.523,2.5,0.348,0.3,15,2,64,3.2,70,85,0.5,0.1,75,R,,,
players,Dorian,Finney-Smith,SF,25,203.2,220,6,70,0.9,1.3,0.709,3.4,0.544,3.1,0.311,1.7,16,3.1,50,1.2,70,85,0.9,0.4,81,,,,
players,Kostas,Antetokounmpo,PF,21,208,200,6,72,1.9,4.5,0.685,6,0.55,1,0.244,1.9,15,4.3,63,0.8,70,90,1,1.3,60,R,,,
players,Devin,Harris,PG,35,190.5,192,6,62,0.8,2,0.761,2.2,0.476,2.9,0.31,0.2,16,1.5,46,1.8,70,55,0.5,0.2,59,,,,
players,Dirk,Nowitzki,PF,40,213.6,245,6,56,0.4,1,0.78,3.4,0.415,4,0.312,0.1,74,3,45,0.7,84,64,0.2,0.4,60,HF,,,
players,Salah,Mejri,C,32,218.44,245,6,80,0.6,0.9,0.625,2.2,0.564,0.9,0.324,1,24,2.6,25,1,65,64,0.3,0.7,76,,,,
players,Tim,Hardaway Jr.,SG,26,198.12,205,6,63,1.3,2.3,0.767,6.7,0.496,7.4,0.321,0.4,21,2.8,54,1.9,70,82,0.6,0.1,89,EX,,,
players,Dwight,Powell,C,27,210.82,240,6,84,0.9,3.3,0.772,4.7,0.699,1.6,0.307,1.8,16,3.5,40,1.5,80,79,0.6,0.6,78,,,,
Rookies,Luka,Doncic,SG,19,200.7,220,6,70,3.4,6.7,0.713,9.3,0.503,7.1,0.327,1.2,100,7.6,62,6,91,98,1.1,0.3,80,R,,,
players,Trey,Burke,PG,26,185.42,191,6,52,0.8,2,0.837,4.7,0.53,2.9,0.356,0.5,17,1,70,2.6,70,82,0.5,0.1,91,,,,
,,,,,,,,,,,,,,,,,,,,,,,,,,,,,
players,Trey,Lyles,PF,23,208.28,234,7,69,1.1,1.8,0.698,4.6,0.529,3.1,0.418,0.7,18,3.2,35,1.4,70,91,0.5,0.4,69,,,,
players,Will,Barton,SG,28,198.12,175,7,68,1.5,4.6,0.77,6.1,0.447,4.6,0.342,0.7,17,3.9,68,2.9,80,76,0.4,0.5,73,,,,
players,Malik,Beasley,SG,22,195.58,196,7,60,0.7,0.8,0.848,4.1,0.56,5,0.402,0.4,17,2,66,1.2,80,94,0.7,0.1,68,,,,
players,Torrey,Craig,SF,28,201,215,7,70,0.6,0.9,0.7,2.3,0.569,2.5,0.324,1.2,19,2.3,55,1,70,67,0.5,0.6,73,,,,
players,Jarred,Vanderbilt,PF,19,106,214,7,78,0.5,0.6,0.6,1.1,0.5,0.1,0,0.4,24,0.9,45,0.2,90,90,0.4,0.1,70,,,,
players,Gary,Harris,SG,24,193.04,210,7,67,1.2,2.5,0.799,6.9,0.476,4.2,0.339,0.7,17,2.1,72,2.2,75,88,1,0.3,75,,,,
players,Juan,Hernangomez,PF,23,205.74,230,7,70,0.5,1.2,0.767,1.9,0.541,2.6,0.365,0.9,18,2.9,34,0.8,70,91,0.4,0.3,67,,,,
players,Nikola,Jokic,C,23,208.28,250,7,70,3.1,4.4,0.821,11.7,0.569,3.4,0.307,2.9,100,8,40,7.3,75,98,1.4,0.7,79,HH,,,
players,Paul,Millsap,PF,33,203.2,246,7,88,1.4,3.6,0.727,7.2,0.522,2.3,0.365,2.2,54,5,36,2,70,61,1.2,0.8,86,PT,,,
players,Jamal,Murray,PG,21,193.04,207,7,64,2.1,3,0.848,10.1,0.476,5.5,0.367,0.9,30,3.4,80,4.8,80,97,0.9,0.4,86,,,,
players,Isaiah,Thomas,PG,29,175.26,185,7,48,1.5,2.3,0.63,4.7,0.393,3.6,0.279,0.4,100,0.7,88,1.9,82,73,0.4,0.1,67,,,,
players,Tyler,Lydon,PF,22,208.28,205,7,56,0.2,0.1,0.333,0.3,0.625,0.4,0.4,0.3,15,0.4,25,0.2,70,94,0.1,0,80,,,,
players,Mason,Plumlee,C,28,210.82,245,7,80,1.5,2.4,0.561,5.3,0.602,0.1,0.2,2,21,4.4,46,3,70,76,0.8,0.9,81,,,,
Rookies,Michael,Porter,SF,20,208.3,215,7,69,1,3,0.778,6.7,0.35,3.3,0.3,1.3,60,5.3,52,0.3,68,100,1,0.3,72,R,,,
Rookies,Monte,Morris,PG,23,190.5,175,7,60,0.6,1,0.802,5.8,0.531,2.8,0.414,0.4,15,1.9,70,3.6,70,91,0.9,0,65,,,,
,,,,,,,,,,,,,,,,,,,,,,,,,,,,,
players,Isaiah,Whitehead,PG,23,193.04,213,8,52,2,1.4,0.823,5.1,0.404,1.9,0.321,0.3,16,2.2,45,3,70,91,0.6,0.5,82,,,,
players,Jose,Calderon,PG,37,190.5,200,8,49,0.7,0.2,0.818,1.3,0.492,1.2,0.246,0.2,21,1,31,2.3,70,49,0.3,0.1,44,CG,,,
players,Sviatoslav,Mykhailiuk,SG,21,203.2,205,8,61,0.5,0.5,0.6,1.2,0.333,2.1,0.326,0.2,3,0.6,54,0.9,62,38,0.3,0,63,R,,,
players,Andre,Drummond,C,25,210.82,279,8,90,2.2,5.2,0.59,12.8,0.548,0.5,0.132,5.4,100,10.2,45,1.4,80,85,1.7,1.7,98,HH,,,
players,Bruce,Brown,SG,22,196,202,8,74,0.6,0.8,0.75,3,0.457,1.3,0.258,0.6,16,1.9,60,1.2,70,94,0.5,0.5,60,R,,,
players,Khyri,Thomas,SG,26,200.66,200,8,68,0.2,0.4,0.636,1.3,0.353,1.3,0.286,0.2,15,0.6,40,0.3,70,82,0.3,0.2,25,R,,,
players,Glenn,Robinson III,SF,25,198.12,222,8,65,0.4,0.9,0.8,2.4,0.491,1.3,0.29,0.4,16,1.1,52,0.4,70,85,0.3,0.2,82,,,,
players,Luke,Kennard,SG,22,195.58,187,8,53,0.9,1,0.836,4,0.486,4.3,0.394,0.2,15,2.7,40,1.8,70,94,0.4,0.2,75,,,,
players,Reggie,Jackson,PG,28,190.5,208,8,61,1.8,2.9,0.864,7,0.464,5.7,0.369,0.5,22,2.1,60,4.2,60,76,0.7,0.1,70,SP,,,
players,Langston,Galloway,SG,27,190,202,8,54,0.3,1.2,0.844,2.6,0.449,4.8,0.355,0.6,25,1.5,52,1.1,67,67,0.5,0.1,63,,,,
players,Jon,Leuer,PF,29,208.28,228,8,58,0.6,0.8,0.742,2.5,0.637,0.3,0.091,0.7,16,1.7,48,0.3,70,73,0.3,0.1,42,,,,
players,Zaza,Pachulia,C,34,210.82,270,8,80,0.8,1.8,0.782,2.8,0.45,0.1,0,1.5,100,2.4,35,1.3,72,58,0.5,0.3,68,IH,,,
players,Thon,Maker,PF,21,215.9,216,8,74,0.8,1.6,0.766,2,0.458,2.6,0.307,0.8,26,2.8,30,0.9,72,97,0.4,1.1,59,,,,
players,Ish,Smith,PG,30,182.88,175,8,59,1.1,1.1,0.758,6.3,0.455,2.4,0.326,0.4,16,2.2,50,3.6,70,70,0.5,0.2,75,,,,
players,Blake,Griffin,PF,29,208.28,251,8,79,3.4,7.3,0.753,10.9,0.532,7,0.362,1.3,100,6.2,80,5.4,90,73,0.7,0.4,90,SP,,,
players,Wayne,Ellington,SG,31,193.04,200,8,64,0.9,1.2,0.758,2,0.607,7.8,0.373,0.3,16,1.9,60,1.5,70,67,1.1,0.1,60,EX,,,
,,,,,,,,,,,,,,,,,,,,,,,,,,,,,
players,Jacob,Evans,SG,21,198,210,9,64,0.4,0,0,1.3,0.368,0.5,0.267,0.2,1,0.6,40,0.8,70,79,0.2,0.1,43,R,,,
players,Stephen,Curry,PG,30,190.5,190,9,69,2.8,4.2,0.916,7.7,0.525,11.7,0.437,0.7,100,4.7,100,5.2,90,70,1.3,0.4,88,HH,,,
players,Kevin,Durant,SF,30,205.74,240,9,91,2.9,6.5,0.885,12.8,0.587,5,0.353,0.4,100,5.9,100,5.9,90,70,0.7,1.1,90,PT,,,
players,Draymond,Green,PF,28,200.66,230,9,94,2.6,1.4,0.692,3.9,0.542,2.5,0.285,0.9,100,6.4,70,6.9,95,76,1.4,1.1,92,CG,,,
players,Andre,Iguodala,SF,33,198.12,215,9,93,0.8,1,0.582,2.3,0.652,2.1,0.333,0.7,100,3,70,3.2,85,55,0.9,0.8,81,PT,,,
players,Damian,Jones,C,23,213.36,245,9,74,0.7,1.5,0.649,3.1,0.716,0,0,1.3,27,1.8,25,1.2,70,91,0.5,1,75,,,,
players,Shaun,Livingston,PG,33,200.66,192,9,70,0.6,0.8,0.784,3.3,0.524,0,0,0.7,100,1.2,34,1.8,70,61,0.5,0.4,80,,,,
players,Kevon,Looney,PF,22,205.74,220,9,88,0.6,1.3,0.619,4.2,0.641,0.1,0.1,2.4,26,2.8,26,1.5,70,94,0.6,0.7,74,,,,
players,Quin,Cook,PG,25,188,179,9,54,0.7,0.4,0.769,3.2,0.515,2.7,0.405,0.3,25,1.8,78,1.6,70,82,0.3,0,68,,,,
players,Alfonzo,Mckinnie,SF,26,203,2115,9,63,0.4,0.7,0.563,2.2,0.586,1.6,0.356,1.1,36,2.3,47,0.4,75,91,0.3,0.2,70,,,,
players,Klay,Thompson,SG,28,200.66,215,9,90,1.5,2,0.816,10.3,0.516,7.7,0.402,0.5,100,3.4,90,2.4,70,76,1.1,0.6,91,EX,,,
players,Jordan,Bell,C,24,205.5,225,9,70,0.6,0.6,0.61,2.8,0.521,0,0,0.8,8.5,1.9,40,1.1,65,78,0.3,0.8,62,,,,
players,Jonas,Jerebko,PF,31,208.28,231,9,67,0.6,1.1,0.8,2.3,0.563,2.6,0.367,1,19,3,35,1.3,75,67,0.4,0.2,76,,,,
players,Andrew,Bogut,C,34,213.36,260,9,80,0.7,0.3,1,3.3,0.5,0,0,1.1,26,3.9,25,1,75,58,0.3,0.7,52,IH,,,
players,DeMarcus,Cousins,C,28,210.82,270,9,73,2.4,4.8,0.736,9.2,0.551,3.2,0.274,1.4,100,6.8,46,3.6,60,76,1.3,1.5,87,,,,
,,,,,,,,,,,,,,,,,,,,,,,,,,,,,
players,P.J.,Tucker,PF,33,198.12,245,10,80,0.8,0.7,0.695,1.7,0.449,4.7,0.377,1.5,16,4.4,43,1.2,68,61,1.6,0.5,90,,,,
players,Danuel,House,SF,25,200.66,207,10,52,0.9,1.8,0.789,1.9,0.595,4.6,0.416,0.6,15,2.9,48,1,70,85,0.5,0.3,68,,,,
players,Chris,Paul,PG,33,182.88,175,10,70,2.6,3.5,0.862,6.3,0.479,6.1,0.358,0.6,100,3.9,70,8.2,90,61,2,0.3,70,CG,,,
players,Austin,Rivers,SG,26,194.7,200,10,63,0.7,1,0.51,3.3,0.541,4.7,0.321,0.3,15,1.6,66,2.3,80,60,0.6,0.3,67,PT,,,
players,Isaiah,Hartenstein,PF,20,213.36,225,10,78,0.5,0.5,0.786,1.3,0.514,0.2,0.333,0.8,25,0.9,35,0.5,70,100,0.3,0.4,58,R,,,
players,Clint,Capela,C,24,208.28,240,10,79,1.4,3.9,0.636,10.9,0.648,0,0,4.4,100,8.2,44,1.4,70,88,0.7,1.5,82,,,,
players,Eric,Gordon,SG,30,193.04,215,10,58,1.3,2.2,0.783,5,0.497,8.8,0.36,0.3,100,1.9,66,1.9,72,70,0.6,0.4,88,EX,,,
players,James,Harden,SG,29,195.58,220,10,73,5,11,0.879,11.3,0.528,13.2,0.368,0.8,100,5.8,88,7.5,80,73,2,0.7,100,CG,,,
players,,Nene,C,36,210.82,250,10,72,0.3,1.1,0.66,2.7,0.531,0.1,0,0.8,62,2.1,31,0.6,75,52,0.4,0.4,65,IH,,,
players,Trevon,Duval,PG,20,188.5,190,10,53,2.6,2.8,0.645,8.2,0.5,3.5,0.243,0.5,21,2.3,82,3.7,82,64,1.2,0.1,52,R,,,
players,Gary,Clark,PF,24,208.28,240,10,70,0.1,0.1,1,0.3,0.692,2.7,0.297,0.5,19,1.8,25,0.4,70,82,0.4,0.5,36,R,,,
players,Gerald,Green,SG,33,200.66,205,10,59,0.8,0.9,0.838,1.9,0.547,6,0.354,0.4,22,2.1,47,0.5,70,61,0.5,0.4,57,,,,
players,Iman,Shumpert,SG,28,195.58,220,10,67,0.6,0.2,0.5,1.4,0.481,3.6,0.296,0.4,65,2.3,42,1.1,80,76,0.6,0.2,62,,,,
players,Kenneth,Faried,C,29,203.2,228,10,67,1.1,3.3,0.651,8.1,0.611,0.8,0.35,3.3,24,5,45,0.7,90,73,0.6,0.8,73,SP,,,
,,,,,,,,,,,,,,,,,,,,,,,,,,,,,
players,Tyreke,Evans,SG,29,198.12,220,11,67,1.7,2.3,0.719,6.4,0.405,3.1,0.356,0.5,17,2.4,53,2.4,75,73,0.8,0.3,53,PT,,,
players,Cory,Joseph,PG,27,190.5,193,11,77,1,0.5,0.698,4.6,0.454,2.1,0.322,0.5,29,2.9,73,3.9,70,79,1.1,0.3,72,,,,
players,Darren,Collison,PG,29,182.88,175,11,68,1.6,2.5,0.832,6.1,0.492,2.6,0.408,0.5,16,2.6,63,6,70,67,1.4,0.1,81,,,,
players,Wesley,Matthews,SG,32,195.58,220,11,64,1.3,2.1,0.854,3.5,0.413,5.7,0.369,0.5,19,2.3,51,2.4,70,64,0.9,0.2,93,,,,
players,Alize,Johnson,PF,22,203.2,230,11,71,0,0.6,0.5,1,0.214,0.1,0.5,0.3,15,1.1,25,0.1,70,85,0.1,0.2,41,R,,,
players,Kyle,O'Quinn,C,28,208.28,250,11,80,0.7,0.5,0.81,2.8,0.548,0.3,0.083,0.6,24,2,30,1.2,70,76,0.2,0.6,55,,,,
players,Doug,McDermott,SF,27,203.2,225,11,68,0.5,1,0.835,2.8,0.569,2.7,0.408,0.2,22,1.2,42,0.9,70,79,0.2,0.1,73,,,,
players,T.J.,Leaf,PF,21,208.28,220,11,67,0.2,0.5,0.613,2.6,0.599,0.5,0.258,0.7,15,1.4,25,0.4,70,97,0.2,0.3,36,,,,
players,Myles,Turner,C,22,210.82,243,11,89,1.4,2.7,0.736,7.9,0.521,2.6,0.388,1.4,33,5.8,35,1.6,82,94,0.8,2.7,82,PT,,,
players,Thaddeus,Young,PF,30,203.2,221,11,80,1.5,1.7,0.644,8.6,0.564,1.8,0.349,2.4,18,4.1,53,2.5,80,70,1.5,0.4,84,,,,
players,Bojan,Bogdanovic,SF,29,203.2,216,11,61,1.7,3.8,0.807,8.2,0.538,4.8,0.425,0.4,24,3.7,56,2,70,73,0.9,0,85,IH,,,
players,Victor,Oladipo,SG,26,193.04,210,11,73,2.3,3.9,0.73,10.3,0.47,6,0.343,0.6,69,5,79,5.2,80,82,1.7,0.3,81,SP,,,
players,Domantas,Sabonis,C,22,210.82,240,11,74,2.2,3.9,0.715,9.2,0.592,0.2,0.529,2.2,31,6.8,31,2.9,70,94,0.6,0.4,71,,,,
players,Aaron,Holiday,PG,22,185.5,185,11,59,0.8,1,0.82,2.7,0.459,2.5,0.339,0.1,1,1.2,83,1.7,71,78,0.4,0.3,44,R,,,
,,,,,,,,,,,,,,,,,,,,,,,,,,,,,
players,Garrett,Temple,SG,32,198.12,195,12,61,0.6,1.2,0.742,2,0.5,2.1,0.296,0.4,16,2.1,48,1.4,70,64,1,0.2,46,,,,
players,Rodney,McGruder,SG,27,193.04,205,12,61,1,1.1,0.722,3.6,0.453,3.4,0.351,0.9,15,2.7,39,1.7,70,79,0.6,0.2,65,,,,
players,Patrick,Beverley,PG,30,185.42,185,12,91,1.1,1.6,0.78,2.5,0.421,3.6,0.397,1,100,4,79,3.8,75,70,0.9,0.6,80,,,,
players,JaMychal,Green,PF,28,205.74,227,12,70,1,0.9,0.81,3.5,0.548,3.3,0.413,1.3,19,5.2,37,0.6,70,76,0.5,0.3,64,,,,
players,Jerome,Robinson,SG,21,196,190,12,45,0.4,0.3,0.667,1.6,0.491,1.7,0.316,0.1,8,1.2,61,0.6,67,80,0.3,0.1,28,R,,,
players,Tyrone,Wallace,PG,24,208.28,230,12,60,0.6,0.9,0.526,3.2,0.444,0.3,0.211,0.3,16,1.3,62,0.7,80,88,0.3,0.1,37,,,,
players,Lou,Williams,SG,32,187.5,175,12,55,2.4,6.5,0.876,11.3,0.447,3.9,0.361,0.5,43,2.4,80,5.4,73,61,0.8,0.1,83,EX,,,
players,Montrezl,Harrell,C,25,203.2,240,12,70,1.6,5,0.643,10.6,0.623,0.2,0.176,2.2,95,4.3,47,2,90,85,0.9,1.3,67,,,,
players,Shai,Gilgeous-Alexander,PG,20,198,191,12,73,1.7,2.4,0.8,7,0.503,1.7,0.367,0.7,23,2.1,69,3.3,70,64,1.2,0.5,75,R,,,
players,Wilson,Chandler,SF,31,203.2,225,12,55,0.9,0.5,0.72,2.3,0.478,3.1,0.373,0.9,19,3.3,55,1.6,70,67,0.5,0.4,77,,,,
players,Danilo,Gallinari,SF,30,208.28,225,12,49,1.5,6,0.904,7.5,0.484,5.5,0.433,0.8,36,5.3,55,2.6,72,70,0.7,0.3,80,IH,,,
players,Sindarius,Thornwell,SG,24,196,215,12,70,0.3,0.5,0.735,0.5,0.412,0.2,0.2,0.1,1,0.6,56,0.3,70,58,0.2,0.1,32,,,,
players,Landry,Shamet,SG,21,196,188,12,49,0.8,1.6,0.795,2.4,0.322,6,0.45,0.3,25,2,39,2.3,70,82,0.5,0.1,75,R,,,
players,Ivica,Zubac,C,21,215.9,265,12,70,1.4,2.3,0.733,7.2,0.538,0,0,2.3,18,5.3,31,1.5,70,97,0.4,0.9,75,,,,
,,,,,,,,,,,,,,,,,,,,,,,,,,,,,
players,Kyle,Kuzma,PF,23,205.74,221,13,69,1.9,3.6,0.752,9.5,0.553,6,0.303,0.9,15,4.6,25,2.5,70,91,0.6,0.4,84,,,,
players,JaVale,McGee,C,31,213.36,270,13,86,1.4,2,0.632,8.4,0.634,0.2,0.083,2.6,100,4.9,50,0.7,80,67,0.6,2,65,,,,
players,Moritz,Wagner,C,21,210.9,235,13,46,0.9,1.2,0.811,2.2,0.521,1.8,0.286,0.4,9,1.6,35,0.6,74,58,0.3,0.3,56,,,,
players,Lonzo,Ball,PG,21,198.12,190,13,75,2.2,1,0.417,4.9,0.482,4.9,0.329,1.1,80,4.2,70,5.4,70,97,1.5,0.4,80,,,,
players,Josh,Hart,SG,23,198.12,204,13,70,0.9,1.2,0.668,2.8,0.511,4.1,0.336,0.5,15,3.2,40,1.4,70,91,1,0.6,75,,,,
players,Brandon,Ingram,SF,21,205.74,190,13,62,2.5,5.6,0.675,12.2,0.521,1.8,0.33,0.8,65,4.3,36,3,70,97,0.5,0.6,86,,,,
players,Rajon,Rondo,PG,32,185.42,186,13,72,2.8,0.8,0.639,6.3,0.428,3.1,0.359,0.7,67,4.5,68,8,25,64,1.2,0.2,77,SP,,,
players,LeBron,James,SF,34,203.2,250,13,75,3.6,7.6,0.665,14,0.582,5.9,0.339,1,100,7.4,100,8.3,100,58,1.3,0.6,94,HF,,,
players,Lance,Stephenson,SG,28,197.1,228,13,67,1.3,1.1,0.685,3.5,0.472,3.5,0.472,0.5,12,2.7,40,2.1,75,42,0.6,0.1,59,,,,
players,Tyson,Chandler,C,36,215,243,13,83,0.7,1.4,0.594,1.8,0.616,0,0,1.8,4,3.8,48,0.6,75,60,0.4,0.5,68,,,,
players,Kentavious,Caldwell-Pope,SG,25,195.58,205,13,61,0.8,1.9,0.867,3.9,0.542,5.3,0.347,0.6,21,2.3,67,1.3,72,85,0.9,0.2,65,,,,
players,Jemerrio,Jones,SF,23,208.28,235,13,70,0.8,0.3,0.5,3.8,0.435,1.7,0.2,2.7,30,5.5,40,2.2,67,70,1.2,0.8,57,R,,,
players,Alex,Caruso,PG,24,200.66,210,13,67,1.7,2.6,0.797,4.9,0.431,2,0.48,0.8,83,1.9,61,3.1,70,61,1,0.4,59,,,,
players,Mike,Muscala,PF,27,210.82,240,13,73,0.3,0.5,0.875,1.5,0.577,3.4,0.368,0.4,16,2.2,36,0.8,70,79,0.2,0.6,64,,,,
players,Reggie,Bullock,SG,27,200.66,205,13,63,0.6,1.1,0.81,2.8,0.537,5.2,0.343,0.1,2,2.5,33,1.1,70,79,0.8,0.4,74,,,,
Rookies,Isaac,Bonga,PG,19,205.8,200,13,60,0.3,0.7,0.6,1.1,0.2,0.4,0,0.4,1.5,0.7,66,0.7,96,90,0.4,0.2,42,R,,,
,,,,,,,,,,,,,,,,,,,,,,,,,,,,,
players,Avery,Bradley,SG,28,187.96,180,14,49,2,1.8,0.92,8.2,0.51,5.2,0.384,0.6,21,2.6,57,4,70,76,1,0,77,PT,,,
players,Jaren,Jackson Jr,PF,19,208.3,240,14,74,1.7,3.4,0.766,7.7,0.553,2.4,0.359,1.3,50.5,3.4,47,1.1,96,70,0.9,1.4,73,R,,,
players,Tyler,Zeller,C,29,213.36,253,14,67,1,4.5,0.778,7,0.571,0,0,2.3,17,2.3,30,0.8,70,73,0.3,0.8,57,,,,
players,Mike,Conley,PG,31,185.42,175,14,73,1.9,5.8,0.845,9.9,0.483,6.1,0.364,0.6,90,2.8,60,6.4,70,67,1.3,0.3,76,HH,,,
players,Jevon,Carter,PG,23,188,196,14,65,0.8,0.8,0.813,2.1,0.265,2.6,0.333,0.4,18,1.3,39,1.8,70,79,0.7,0.3,69,R,,,
players,Jonas,Valanciunas,C,26,213.36,265,14,80,2.7,4.8,0.769,13.7,0.563,0.9,0.278,2.7,72,7.9,33,2.2,75,82,0.3,1.6,78,IH,,,
players,Delon,Wright,PG,26,195.58,183,14,79,1.5,3.4,0.742,7.2,0.508,3,0.256,1.1,16,4.3,53,5.3,70,82,1.6,0.6,81,,,,
players,Yuta,Watanabe,SF,24,206,205,14,56,0.4,0.7,0.7,2.3,0.371,1.1,0.125,0.3,17,1.8,44,0.5,70,76,0.3,0.1,36,IH,,,
players,Joakim,Noah,C,33,210.82,230,14,81,1.2,2.6,0.716,5,0.519,0,0,1.4,41,4.3,28,2.1,85,61,0.5,0.7,63,,,,
players,Bruno,Caboclo,SF,23,205.74,218,14,73,1.1,1.5,0.84,2.8,0.505,3.8,0.369,1.2,20,3.4,25,1.5,70,91,0.4,1,54,,,,
players,Tyler,Dorsey,SG,22,193.9,183,14,47,0.8,1.7,0.629,3.9,0.5,4.4,0.366,0.9,2,2.5,61,1.9,80,60,0.3,0,56,,,,
players,Chandler,Parsons,SF,30,208.28,230,14,70,64,1,0.88,3.5,0.443,3.8,0.309,0.2,19,2.6,38,1.7,70,70,0.8,0.2,41,,,,
players,Dillon,Brooks,SF,23,200.66,215,14,57,1.1,1.7,0.733,4.6,0.415,2.2,0.375,0.5,15,1.2,25,0.9,70,91,0.6,0.2,45,,,,
players,Kyle,Anderson,SF,25,205.74,230,14,83,1.3,1.5,0.578,5.6,0.583,0.8,0.265,1.1,25,4.7,27,3,70,85,1.30,0.9,78,,,,
players,Justin,Holiday,SG,29,206.1,185,14,70,1.3,1.4,0.9,4.3,0.447,4.4,0.333,0.6,15,2.9,82,1.4,75,57,1.2,0.3,77,,,,
players,Ivan,Rabb,PF,21,208.28,215,14,71,0.7,1.4,0.71,4,0.574,0.3,0.2,1.4,20,2.8,35,1.1,70,94,0.3,0.3,48,,,,
players,C.J.,Miles,SF,31,198.12,225,14,55,0.7,1.1,0.929,3,0.462,5.1,0.364,0.1,16,2,45,1.1,70,67,0.4,0.7,55,,,,
,,,,,,,,,,,,,,,,,,,,,,,,,,,,,
players,Derrick,Jones Jr.,SF,21,200.66,190,15,72,0.7,2,0.607,3.9,0.567,1.5,0.308,1.6,15,2.4,59,0.6,70,97,0.8,0.7,45,,,,
players,Goran,Dragic,PG,32,190.5,190,15,62,2,2.8,0.782,7.5,0.454,4.6,0.358,0.6,41,2.5,71,4.8,70,64,0.8,0.1,82,IH,,,
players,Bam,Adebayo,C,21,208.28,250,15,87,1.5,2.8,0.735,5.7,0.588,0.2,0.2,2,15,5.3,25,2.2,70,97,0.9,0.8,64,,,,
players,Udonis,Haslem,PF,38,203.2,235,15,79,0.5,0.9,0.6,1.3,0.55,0.1,0,0.5,18,1.7,25,0.4,70,46,0.3,0.1,32,,,,
players,James,Johnson,SF,31,205.74,250,15,71,1.3,1.3,0.714,4.2,0.496,2.7,0.336,0.4,18,2.8,40,2.5,70,67,0.6,0.5,61,,,,
players,Ryan,Anderson,PF,30,208.28,240,15,35,0.9,2.2,0.858,4,0.458,1.6,0.225,1.6,100,3.5,40,0.9,75,70,0.5,0.2,38,,,,
players,Duncan,Robinson,PF,24,208.28,240,15,54,0.3,0.4,0.667,0.7,0.727,2.3,0.286,0.1,15,1.1,25,0.3,75,67,0.3,0,50,R,,,
players,Josh,Richardson,SG,25,198.12,200,15,67,1.5,3.2,0.861,7.8,0.458,6.3,0.357,0.7,17,2.9,43,4.1,80,85,1.1,0.5,86,,,,
players,Dion,Waiters,SG,27,193.04,225,15,64,1.5,1,0.5,4.3,0.471,6.6,0.377,0.2,17,2.5,60,2.8,85,79,0.7,0.2,55,EX,,,
players,Dwyane,Wade,SG,37,193.04,220,15,70,2.3,3.2,0.708,9.7,0.472,3.6,0.33,1,100,3,82,4.2,85,49,0.8,0.5,73,HF,,,
players,Hassan,Whiteside,C,29,213.36,265,15,85,1.3,3.4,0.449,9.2,0.581,0.2,0.125,3.6,100,7.8,29,0.8,90,73,0.6,1.9,75,HH,,,
players,Justise,Winslow,SF,22,200.66,225,15,73,2.2,2.1,0.628,7.5,0.462,3.9,0.375,1,20,4.4,53,4.3,75,94,1.1,0.3,76,,,,
players,Kelly,Olynyk,C,27,213.36,238,15,70,1.4,2.3,0.822,3.1,0.604,4,0.354,0.9,22,3.8,33,1.8,70,79,0.7,0.5,68,IH,,,
,,,,,,,,,,,,,,,,,,,,,,,,,,,,,
players,Giannis,Antetokounmpo,PF,24,210.82,222,16,98,3.7,9.5,0.729,14.5,0.641,2.8,0.256,2.2,100,10.3,100,5.9,80,88,1.3,1.5,89,HH,,,
players,Malcolm,Brogdon,SG,26,195.58,215,16,76,1.4,2.4,0.928,7.9,0.544,3.8,0.426,1,40,3.5,74,3.2,70,82,0.7,0.2,77,,,,
players,Eric,Bledsoe,PG,29,185.42,190,16,90,2.1,3,0.75,7.6,0.582,4.8,0.329,1.1,42,3.6,83,5.5,72,73,1.5,0.4,76,,,,
players,Ersan,Ilyasova,PF,31,208.28,235,16,70,0.7,1.1,0.824,3.3,0.493,2.4,0.363,1.4,100,3.1,64,0.8,70,67,0.5,0.3,67,,,,
players,George,Hill,PG,32,190.5,188,16,76,0.7,1.4,0.815,3.1,0.556,2.7,0.28,0.6,43,2,54,2.1,70,64,0.9,0.1,70,,,,
players,D.J.,Wilson,PF,22,208,231,16,71,0.7,1,0.553,2.6,0.468,2.6,0.362,0.9,16,3.7,43,1.1,70,64,0.4,0.4,68,,,,
players,Pau,Gasol,C,38,213.36,250,16,77,0.7,1.3,0.7,2.7,0.444,1.6,0.358,1.7,100,6.4,31,1.7,70,46,0.2,0.5,52,HF,,,
players,Khris,Middleton,SF,27,203.2,234,16,69,2.3,3.4,0.837,8.8,0.485,6.2,0.378,0.6,21,5.3,63,4.3,70,79,1,0.1,83,,,,
players,Tim,Frazier,PG,28,185.42,170,16,60,1.3,1.1,0.692,3.5,0.429,2,0.417,0.8,16,1.8,53,3.5,70,76,0.4,0.1,65,,,,
players,Pat,Connaughton,SG,26,195.58,206,16,72,0.5,0.7,0.725,2.5,0.647,3.3,0.33,1,15,3.2,40,2,70,82,0.5,0.4,71,,,,
players,Tony,Snell,SF,27,200.66,200,16,66,0.3,0.6,0.881,2.1,0.522,2.8,0.397,0.4,21,1.7,45,0.9,70,79,0.4,0.2,77,,,,
players,Sterling,Brown,SG,23,205.74,242,16,70,0.8,0.7,0.69,2.8,0.558,2.5,0.361,0.5,20,2.7,54,1.4,70,61,0.4,0.1,59,,,,
players,Nikola,Mirotic,PF,27,208.28,220,16,70,1,3.2,0.847,4.9,0.545,6.9,0.365,1.3,25,6.1,45,1.2,70,79,0.7,0.7,79,IH,,,
players,Donte,DiVincenzo,SG,22,198.12,202,16,71,0.7,0.4,0.75,1.5,0.683,3.1,0.265,0.6,17,1.4,46,1.1,70,94,0.5,0.2,43,R,,,
players,Brook,Lopez,C,30,213.36,275,16,74,1,1.6,0.842,3.4,0.613,6.3,0.365,0.4,42,4.5,38,1.2,75,70,0.6,2,76,,,,
,,,,,,,,,,,,,,,,,,,,,,,,,,,,,
players,Keita,Bates - Diop,SF,23,210.82,250,17,70,0.5,0.9,0.643,3,0.522,1.7,0.25,0.5,21,2.2,40,0.6,70,80,0.6,0.5,63,R,,,
players,Josh,Okogie,SG,20,208.28,240,17,73,0.9,2.2,0.728,4,0.464,2.9,0.279,0.6,25,2.4,67,1.2,70,80,1.2,0.4,71,R,,,
players,Gorgui,Dieng,PF,29,210.82,241,17,70,0.8,1.4,0.83,4.2,0.53,0.7,0.339,1.1,19,3,35,1.9,70,73,0.6,0.5,68,,,,
players,Luol,Deng,SF,33,205.74,220,17,47,0.6,1.6,0.714,3.4,0.608,2,0.318,0.9,23,2.4,47,0.8,70,61,0.7,0.4,47,,,,
players,Dario,Saric,PF,24,208.28,223,17,66,1.1,1.8,0.875,4.6,0.511,3.7,0.383,1.5,26,3.9,37,1.5,70,88,0.6,0.1,78,,,,
players,Tyus,Jones,PG,22,187.96,195,17,64,0.7,1,0.841,4.7,0.453,1.9,0.317,0.3,17,1.6,60,4.8,72,94,1.2,0.1,54,,,,
players,Derrick,Rose,PG,30,190.5,190,17,49,1.6,3.1,0.856,11.9,0.509,2.9,0.37,0.6,100,2.1,58,4.3,60,70,0.6,0.2,81,,,,
players,Jerryd,Bayless,PG,30,190.5,200,17,55,0.9,0.8,0.571,3.9,0.402,2.9,0.296,0.3,18,1.5,80,3.5,70,70,0.5,0.1,25,,,,
players,Taj,Gibson,PF,33,206.1,223,17,74,1,2.5,0.757,7.2,0.583,0.5,0.324,2.5,40,4.1,40,1.2,75,67,0.8,0.6,65,,,,
players,Anthony,Tolliver,PF,33,203.2,240,17,53,0.6,0.9,0.783,0.7,0.409,3.3,0.377,0.2,16,2.5,33,0.7,70,61,0.3,0.3,56,,,,
players,Robert,Covington,SF,28,205.74,215,17,90,1.1,3,0.773,4.4,0.526,6.7,0.372,1,23,4.8,52,1.5,70,76,2.3,1.1,93,,,,
players,Karl-Anthony,Towns,C,23,213.36,244,17,76,3.1,5.8,0.836,12.5,0.462,4.6,0.4,3.4,100,9,51,3.4,85,91,0.9,1.9,96,HH,,,
players,Andrew,Wiggins,SF,23,203.2,199,17,55,1.9,4.1,0.699,11.8,0.441,4.8,0.339,1.1,100,3.7,61,2.5,70,91,1,0.7,95,HH,,,
players,Jeff,Teague,PG,30,187.96,186,17,60,2.3,3.6,0.804,7.4,0.465,2.5,0.333,0.4,26,2.1,72,8.2,75,70,1,0.4,90,PT,,,
,,,,,,,,,,,,,,,,,,,,,,,,,,,,,
players,Julius,Randle,PF,24,205.74,250,18,66,2.8,6.7,0.731,12.2,0.564,2.7,0.344,2.2,72,6.5,61,3.1,80,88,0.7,0.6,90,,,,
players,Darius,Miller,SF,28,205.74,225,18,61,0.9,1,0.789,1.7,0.467,5.3,0.365,0.2,18,1.7,47,2.1,70,70,0.6,0.3,50,,,,
players,Stanley,Johnson,SF,22,200.66,245,18,80,1.4,0.7,0.692,3.2,0.474,1.9,0.324,0.5,16,1.8,50,1.6,70,94,0.7,0.1,65,,,,
players,Frank,Jackson,SF,20,190.5,205,18,52,0.8,1.2,0.74,4.6,0.507,2.8,0.314,0.4,16,1.8,42,1.1,70,82,0.4,0.5,70,R,,,
players,Anthony,Davis,PF,23,210.82,253,18,94,2,7.7,0.794,15.7,0.547,2.6,0.331,3.1,100,8.9,57,3.9,10,85,1.6,2.4,93,HH,,,
players,Cheick,Diallo,PF,22,205.74,220,18,75,0.8,1,0.746,4.2,0.625,0.1,0.25,1.2,15,4,34,0.5,70,94,0.5,0.5,39,,,,
players,Solomon,Hill,SF,27,200.66,225,18,70,0.7,0.7,0.719,1.8,0.468,2.3,0.317,0.8,15,2.3,45,1.3,72,79,0.5,0.2,47,,,,
players,Jrue,Holiday,PG,28,193.04,205,18,90,3.1,4,0.768,11.9,0.539,5.4,0.325,1.1,20,3.9,62,7.7,70,76,1.6,0.8,90,CG,,,
players,Jahlil,Okafor,C,23,210.82,275,18,67,0.9,1.5,0.663,6.1,0.591,0.1,0.2,1.4,25,3.3,28,0.7,70,91,0.3,0.7,75,,,,
players,E'Twaun,Moore,SG,29,193.04,191,18,61,1.1,1.1,0.763,6.7,0.503,3.3,0.432,0.7,15,1.7,47,1.9,70,73,0.8,0.2,84,,,,
players,Christian,Wood,PF,21,210.82,220,18,63,0.8,2.7,0.732,4.3,0.571,1.2,0.346,0.8,15,3.1,25,0.4,70,91,0.3,0.2,70,,,,
players,Ian,Clark,SG,27,190.5,175,18,58,1,0.6,0.892,3,0.47,3.4,0.327,0.2,86,1.3,40,1.6,70,79,0.4,0.1,54,,,,
players,Elfrid,Payton,PG,24,193.04,185,18,70,2.7,1.8,0.743,7.3,0.467,2.5,0.314,1.2,19,4.1,64,7.6,75,88,1,0.4,89,,,,
,,,,,,,,,,,,,,,,,,,,,,,,,,,,,
players,Mitchell,Robinson,C,20,216,225,19,80,0.5,2,0.6,4.4,0.694,0,0,2.7,6.5,3.7,44,0.6,61,83,0.8,2.4,60,R,,,
players,Damyean,Dotson,SG,24,198,210,19,64,1,1.3,0.745,4.9,0.461,4.7,0.368,0.5,25,3.1,42,1.8,70,85,0.8,0.1,76,,,,
players,Mario,Hezonja,SF,23,203.2,215,19,60,1.5,2,0.763,5.4,0.478,2.6,0.276,0.5,16,3.6,37,1.5,70,91,1,0.1,72,,,,
players,Noah,Vonleh,PF,23,205.74,240,19,70,1.3,2.3,0.712,4.5,0.531,2,0.336,1.7,16,6.1,27,1.9,80,91,0.7,0.8,84,,,,
players,Frank,Ntilikina,PG,20,195.58,170,19,75,1.3,0.7,0.767,3.9,0.371,2.7,0.287,0.3,40,1.7,50,2.8,70,100,0.7,0.3,74,,,,
players,Dennis,Smith,PG,21,190.5,195,19,48,2.6,3.5,0.568,10,0.462,4,0.289,0.7,70,2.1,70,5.4,70,97,1.3,0.4,82,,,,
players,Emmanuel,Mudiay,PG,22,195.58,200,19,46,2.4,3.2,0.774,9,0.492,3.6,0.392,0.6,20,2.8,55,3.9,80,94,0.7,0.3,84,,,,
Rookies,Allonzo,Trier,SG,23,196,200,19,47,1.8,3.5,0.803,6,0.466,2.1,0.394,0.5,31.5,2.1,75,1.9,75,80,0.4,0.2,78,R,,,
players,Luke,Kornet,PF,23,216,250,19,70,0.5,1,0.826,2,0.411,4.2,0.363,0.6,24,2.3,30,1.2,70,76,0.6,0.9,64,,,,
players,Kadeem,Allen,SG,26,190,192,19,61,1.4,2.8,0.778,5.5,0.457,1.9,0.472,0.4,16,2.3,58,4,70,82,0.8,0.2,60,,,,
players,Henry,Ellenson,PF,22,210.82,245,19,61,0.5,1.4,0.739,3,0.392,2,0.441,0.3,16,3.1,28,0.9,70,94,0.4,0.1,30,,,,
players,Lance,Thomas,PF,30,203.2,235,19,52,0.5,0.8,0.75,2.6,0.475,1.7,0.278,0.5,17,2.1,31,0.6,70,70,0.4,0.2,64,,,,
players,Kevin,Knox,SF,19,205.8,210,19,54,1.5,3,0.717,7.3,0.387,4.9,0.393,0.8,48,3.7,71,1.1,50,90,0.6,0.3,68,R,,,
players,DeAndre,Jordan,C,30,210.82,265,19,84,2.2,3.8,0.705,6.5,0.641,0,0,3.3,100,9.8,41,2.3,90,70,0.6,1.1,85,PT,,,
,,,,,,,,,,,,,,,,,,,,,,,,,,,,,
players,Alex,Abrines,SG,25,198.12,190,20,64,0.5,0.4,0.923,1,0.5,4.1,0.323,0.2,31,1.4,39,0.6,70,85,0.5,0.2,65,,,,
players,Steven,Adams,C,25,213.36,255,20,80,1.7,3.7,0.5,10.1,0.596,0,0,4.9,100,4.6,43,1.6,70,85,1.5,1,96,IH,,,
players,Dennis,Schroder,PG,25,185.42,172,20,67,2.2,2.9,0.819,9.4,0.45,4.6,0.341,0.5,38,3.1,65,4.1,72,85,0.8,0.2,84,IH,,,
players,Markieff,Morris,PF,29,208.28,245,20,70,1.7,1.6,0.772,4.8,0.484,3.5,0.335,1.1,20,3.5,40,1.4,68,73,0.6,0.4,83,,,,
players,Jerami,Grant,PF,24,205.74,210,20,75,0.8,2.8,0.71,6.6,0.555,3.7,0.71,1.2,26,4,47,1,85,88,0.8,1.3,94,SP,,,
players,Abdel,Nader,SF,25,198,225,20,65,0.4,0.6,0.75,1.9,0.513,1.6,0.32,0.2,14,1.7,63,0.3,58,62.8,0.3,0.2,56,,,,
players,Deonte,Burton,SG,25,196,245,20,54,0.3,0.4,0.667,1.7,0.445,0.8,0.296,0.1,20,0.8,50,0.3,70,79,0.2,0.3,36,R,,,
players,Jawun,Evans,PG,22,182.6,177,20,41,0.9,1,0.776,4.1,0.372,1.1,0.278,0.2,8,1.6,78,2.1,74,68,0.8,0.1,57,,,,
players,Nerlens,Noel,C,24,210.82,228,20,91,0.6,1,0.684,3.6,0.587,0,0,1.6,27,2.6,40,0.6,75,88,0.9,1.2,50,,,,
players,Paul,George,SF,28,208,225,20,98,2.7,7,0.839,11.1,0.484,9.8,0.386,1.4,92,6.8,92,4.1,75,69,2.2,0.4,95,SP,,,
players,Andre,Roberson,SF,27,200.66,210,20,95,0.8,1,0.316,3.2,0.627,0.9,0.222,1.9,32,2.8,56,1.2,72,79,1.2,0.9,83,,,,
players,Terrance,Ferguson,SG,20,200.66,186,20,65,0.6,0.7,0.725,1.9,0.56,3.9,0.366,0.4,15,1.5,50,1,70,100,0.5,0.2,80,,,,
players,Hamidou,Diallo,SG,20,195.6,200,20,67,0.5,1.2,0.61,2.8,0.504,0.5,1.67,0.7,22.5,1.2,81,0.3,72,100,0.4,0.2,58,R,,,
players,Russell,Westbrook,PG,30,190.5,200,20,75,4.5,6.2,0.656,14.5,0.481,5.6,0.29,1.5,100,9.6,100,10.7,100,70,1.9,0.5,100,CG,,,
players,Raymond,Felton,PG,34,185.42,205,20,71,0.4,0.4,0.923,2.2,0.473,1.8,0.328,0.9,20,1,42,1.6,75,58,0.3,0.2,60,,,,
players,Patrick,Patterson,PF,29,205.74,230,20,64,0.3,0.5,0.633,1.3,0.439,2.2,0.336,0.7,39,1.7,31,0.5,70,73,0.3,0.2,71,,,,
,,,,,,,,,,,,,,,,,,,,,,,,,,,,,
players,D.J.,Augustin,PG,31,182.88,183,21,55,1.6,2.6,0.866,4.5,0.511,3.8,0.421,0.5,19,2,50,5.3,70,67,0.6,0,80,,,,
players,Mohamed,Bamba,C,20,213.4,215,21,80,0.9,1.3,0.587,3.7,0.555,1.5,0.3,1.4,55.5,3.6,41,0.8,56,100,0.3,1.4,61,R,,,
players,Evan,Fournier,SG,26,200.66,205,21,60,1.9,2.1,0.806,7.6,0.509,5.6,0.34,0.5,23,2.7,54,3.6,75,82,0.9,0.1,84,PT,,,
players,Aaron,Gordon,PF,23,205.74,220,21,70,2.1,3.2,0.731,9,0.499,4.4,0.349,1.7,100,5.7,54,3.7,80,91,0.7,0.7,90,SP,,,
players,Jerian,Grant,PG,26,193.04,195,21,69,0.9,0.7,0.65,1.8,0.473,1.8,0.364,0.3,17,1.3,37,2.6,70,82,0.7,0.1,65,,,,
players,Terrence,Ross,SG,27,200.66,206,21,67,1.1,1.8,0.875,5.7,0.484,7,0.383,0.3,53,3.1,45,1.7,75,79,0.9,0.4,87,EX,,,
players,Melvin,Frazier,SG,22,208.28,228,21,40,0.1,0.4,0.25,1.5,0.467,0.6,0,0.3,15,0.2,54,0.1,70,80,0.1,0,25,R,,,
players,Nikola,Vucevic,C,28,213.36,260,21,82,2,2.8,0.789,14,0.549,2.9,0.364,2.8,50,9.2,33,3.8,72,76,1,1.1,94,IH,,,
players,Jonathan,Isaac,PF,21,210.82,205,21,80,1,1.8,0.815,4.6,0.51,3.5,0.323,1.3,60,4.2,46,1.1,70,97,0.8,1.3,82,,,,
players,Wesley,Iwundu,SF,24,200.66,205,21,73,0.6,1.5,0.816,2.9,0.431,1.2,0.367,0.5,15,2.2,40,1.1,70,88,0.4,0.3,70,,,,
players,Khem,Birch,C,26,213.36,240,21,74,0.4,1.7,0.677,3,0.607,0,0,1.6,15,2.2,25,0.8,70,94,0.4,0.6,51,PT,,,
players,Michael,Carter-Williams,PG,27,198.12,190,21,84,0.8,2.3,0.741,3.6,0.419,1.6,0.158,1.3,24,3.4,43,4.1,70,79,0.8,0.8,65,,,,
players,Timofey,Mozgov,C,32,215.9,275,21,52,1.1,1,0.767,2.4,0.64,0.6,0.222,1,28,2.1,37,0.4,70,64,0.2,0.4,56,,,,
players,Jarell,Martin,PF,24,208.28,239,21,72,0.3,0.3,0.818,1.1,0.489,1.4,0.351,0.3,15,1.5,33,0.4,70,88,0.1,0.2,47,,,,
players,Markelle,Fultz,PG,20,193.04,195,21,70,1.3,1.9,0.568,7.4,0.433,0.7,0.286,1.4,85,2.3,70,3.1,70,100,0.9,0.3,70,,,,
,,,,,,,,,,,,,,,,,,,,,,,,,,,,,
players,Jonathan,Simmons,SF,29,198.12,195,22,79,0.8,1.7,0.64,2.9,0.465,1.4,0.429,0.3,44,1.5,46,2.2,80,73,0.7,0.1,56,SP,,,
players,Joel,Embiid,C,24,213.36,250,22,96,3.5,10.1,0.804,14.6,0.535,4.1,0.3,2.5,100,11.1,43,3.7,85,88,0.7,1.9,90,HH,,,
players,Zhaire,Smith,SG,19,193,199,22,64,1.5,0.8,0.667,5.2,0.5,2.3,0.2,1,18,2,53,1.5,70,80,0.3,0.6,74,R,,,
players,James,Ennis,SF,28,200.66,210,22,73,0.6,1.3,0.697,2.6,0.489,2,0.306,1.3,17,2.3,44,0.8,70,76,0.2,0.4,71,,,,
players,Furkan,Korkmaz,SG,21,202.5,185,22,58,0.5,0.9,0.818,2.1,0.505,3,0.326,0.3,1,1.9,68,1.1,36,62.6,0.6,0,78,,,,
players,J.J.,Redick,SG,34,193.04,190,22,59,1.3,3.4,0.894,5.6,0.502,8,0.397,0.3,56,2.2,56,2.7,70,58,0.4,0.2,88,,,,
players,T.J.,McConnell,PG,26,187.96,200,22,76,1.2,0.5,0.784,5,0.546,0.6,0.333,0.4,25,1.9,68,3.4,70,82,1,0.2,73,,,,
players,Jonah,Bolden,PF,23,208,195,22,49,0.8,0.6,0.481,1.5,0.697,2.2,0.354,1.1,4,2.7,71,0.9,91,72,0.4,0.9,76,R,,,
players,Amir,Johnson,C,33,205.74,240,22,70,0.9,0.8,0.756,2.3,0.573,0.8,0.3,0.9,22,2,29,1.2,70,67,0.3,0.3,50,,,,
players,Mike,Scott,PF,30,203.2,237,22,70,0.6,0.6,0.667,2.6,0.38,4.4,0.412,0.7,15,3.1,27,0.8,75,70,0.3,0.2,58,,,,
players,Jimmy,Butler,SF,29,200.66,220,22,90,1.5,5.5,0.868,10.9,0.491,2.7,0.338,1.9,100,3.4,89,4,85,73,1.8,0.5,96,,,,
players,Justin,Patton,C,21,210.82,215,22,70,2.1,2.3,0.735,6.7,0.527,1.1,0.286,1.6,30,3.8,30,1,70,97,1,1.5,68,,,,
players,Ben,Simmons,PG,22,208.28,240,22,87,3.5,5.4,0.6,12.1,0.566,0.1,0,2.2,34,6.6,90,7.7,78,94,1.4,0.8,91,,,,
players,Tobias,Harris,PF,26,205.74,235,22,67,1.6,3.3,0.841,9.8,0.542,5,0.326,1.2,20,6.7,52,2.9,72,82,0.4,0.5,97,PT,,,
players,Boban,Marjanovic,C,30,220.98,290,22,80,1,1.6,0.772,5.1,0.634,0,0,1.5,26,3.7,29,1.5,70,70,0.2,0.5,42,,,,
players,Greg,Monroe,C,28,210.82,265,22,70,0.7,1.7,0.625,4.3,0.495,0,0,1.6,27,2.4,38,0.6,68,76,0.3,0.2,58,,,,
,,,,,,,,,,,,,,,,,,,,,,,,,,,,,
players,Dragan,Bender,PF,21,215.9,225,23,59,0.8,1.2,0.593,2.1,0.688,2.2,0.218,0.7,17,3.2,34,1.2,70,97,0.4,0.5,70,,,,
players,Josh,Jackson,SG,21,203.2,203,23,68,2.2,2.7,0.671,7.8,0.445,2.8,0.324,0.8,75,3.6,60,2.3,70,94,0.9,0.7,68,,,,
players,Devin,Booker,SG,22,198.12,206,23,50,4.1,7.1,0.866,13.1,0.536,6.5,0.326,0.6,85,3.5,96,6.8,78,94,0.9,0.2,98,EX,,,
players,Kelly,Oubre Jr.,SF,23,200.66,205,23,67,1.8,4,0.761,8.3,0.532,5.2,0.325,1.2,18,3.7,47,1.6,72,91,1.4,1,81,,,,
players,Jamal,Crawford,SG,38,195.58,200,23,59,1.5,1.7,0.845,3.7,0.453,3.2,0.332,0.1,91,1.2,44,3.6,72,46,0.5,0.2,50,EX,,,
players,Richaun,Holmes,C,25,208.28,245,23,80,0.7,2.5,0.731,5.2,0.608,0,0,1.6,17,3.1,32,0.9,85,85,0.6,1.1,52,,,,
players,DeAndre,Ayton,C,20,213.4,243,23,66,1.8,2.7,0.746,12.2,0.588,0.1,0,3.1,57,7.1,37,1.8,60,96,0.9,0.9,80,R,,,
players,Tyler,Johnson,PG,26,193.04,186,23,73,1.1,3,0.872,5.3,0.406,4.3,0.321,1.2,20,2.8,62,4.2,70,82,1.1,0.5,82,,,,
players,Mikal,Bridges,SF,22,200.7,200,23,76,0.9,1.4,0.805,3,0.548,3.8,0.373,0.7,18,2.5,54,2.1,80,77,1.6,0.5,74,R,,,
players,Troy,Daniels,SG,27,193.04,205,23,59,0.5,0.5,0.783,1.6,0.481,3.8,0.381,0.3,18,1.2,45,0.5,70,79,0.5,0.1,69,EX,,,
players,Elie,Okobo,PG,21,190,190,23,48,1.3,0.9,0.787,3,0.475,2.5,0.295,0.2,16,1.6,60,2.4,70,91,1.6,0.1,66,R,,,
players,T.J.,Warren,SF,25,203.2,230,23,54,1.2,2.9,0.815,10,0.51,4.2,0.428,0.7,17,3.3,66,1.5,70,85,1.2,0.7,87,,,,
players,De'Anthony,Melton,PG,20,190.5,195,-3,80,1.5,0.6,0.75,3.2,0.441,1.9,0.305,0.5,1,2.2,56,3.2,83,62,1.4,0.5,64,R,,,
players,Ray,Spalding,PF,21,208,215,-3,70,0.7,0.9,0.333,3.4,0.568,0.2,0,1.2,4,2.5,52,0.4,47,75,0.7,0.6,60,R,,,
,,,,,,,,,,,,,,,,,,,,,,,,,,,,,
players,Al-Farouq,Aminu,PF,28,205.74,220,24,78,0.9,2.1,0.867,3.9,0.514,3.5,0.343,1.4,19,6.1,40,1.3,75,76,0.8,0.4,79,IH,,,
players,Zach,Collins,C,21,208.28,215,24,76,1,1.6,0.746,3.6,0.534,1.6,0.331,1.4,15,2.8,25,0.9,70,97,0.3,0.9,75,,,,
players,Rodney,Hood,SG,26,203.2,206,24,75,0.7,1.5,0.805,4.9,0.519,3.1,0.345,0.3,30,1.4,38,1.3,75,82,0.8,0.3,79,,,,
players,Enes,Kanter,C,26,210.82,245,24,67,1.7,3,0.735,8.8,0.596,0.5,0.25,3.7,78,4.9,43,1.4,65,82,0.6,0.4,65,IH,,,
players,Maurice,Harkless,SF,25,205.74,215,24,80,0.8,1.2,0.671,4.5,0.582,2,0.275,1.3,19,3.2,55,1.2,70,85,1.1,0.9,73,,,,
players,Jake,Layman,SF,24,205.74,210,24,64,0.6,1,0.704,3.4,0.646,2.5,0.326,0.8,16,2.3,33,0.7,70,88,0.4,0.4,64,,,,
players,Meyers,Leonard,C,26,215.9,245,24,57,0.7,0.8,0.843,2.1,0.626,1.8,0.45,0.8,18,3,27,1.2,75,82,0.2,0.1,57,,,,
players,Damian,Lillard,PG,28,190.5,195,24,54,2.7,6.4,0.912,11.1,0.499,8,0.369,0.9,100,3.8,66,6.9,85,76,1.1,0.4,90,HH,,,
players,C.J.,McCollum,SG,27,190.5,200,24,52,1.5,2.7,0.828,11.4,0.506,6.4,0.375,0.9,98,3.1,62,3,80,79,0.8,0.4,86,HH,,,
players,Seth,Curry,SG,28,187.96,285,24,60,0.8,0.7,0.846,2.9,0.463,3.4,0.45,0.4,36,1.3,58,0.9,72,76,0.5,0.2,91,,,,
players,Jusuf,Nurkic,C,24,213.36,280,24,84,2.3,5.1,0.773,11.1,0.523,0.4,0.103,3.4,17,7,36,3.2,75,88,1,1.4,87,,,,
players,Anfernee,Simmons,SG,19,193,185,24,58,0.6,0.8,0.563,1.7,0.529,1.5,0.345,0.2,8,0.5,75,0.7,70,98,0.1,0,25,R,,,
players,Evan,Turner,PG,30,200.66,220,24,68,1.6,1.5,0.708,5.4,0.494,0.7,0.212,0.5,17,4,41,3.9,75,70,0.5,0.2,74,,,,
players,Skal,Labissiere,PF,22,210.82,225,24,68,1.1,1.8,0.746,5.7,0.492,0.6,0.375,1.4,15,2.9,25,1,70,94,0.4,0.6,60,,,,
,,,,,,,,,,,,,,,,,,,,,,,,,,,,,
players,Bogdan,Bogdanovic,SG,26,198,205,25,59,1.7,2.3,0.827,7,0.462,5.3,0.36,0.6,49,2.9,78,3.8,45,80,1,0.2,69,IH,,,
players,Willie,Cauley-Stein,C,25,213.36,240,25,73,1,3.1,0.551,9.1,0.556,0,0,2.2,17,6.1,31,2.4,72,85,1.2,0.6,84,,,,
players,Harrison,Barnes,SF,26,203.2,210,25,61,1.3,3.6,0.824,7.6,0.439,5.7,0.395,0.7,66,3.9,68,1.5,70,82,0.6,0.2,90,PT,,,
players,Yogi,Ferrell,PG,25,182.88,180,25,43,0.6,0.9,0.896,2.9,0.488,2.1,0.362,0.2,15,1.4,76,1.9,70,85,0.5,0.1,56,,,,
players,Corey,Brewer,SF,32,205.74,186,25,67,0.5,1.3,0.733,1.8,0.523,1.3,0.333,0.9,65,1.5,38,1.2,75,64,0.8,0.2,60,,,,
players,Buddy,Hield,SG,26,193.04,214,25,59,1.8,2.4,0.886,8.6,0.487,7.9,0.427,1.3,19,3.7,69,2.5,75,85,0.7,0.4,88,,,,
players,Kosta,Koufos,C,29,213.36,265,25,67,0.6,0.6,0.416,3.6,0.477,0,0,1.2,30,3,31,0.9,70,73,0.4,0.4,48,,,,
players,Marvin,Bagley,PF,19,210.9,225,25,63,1.6,4.2,0.691,9.8,0.534,1.5,0.313,2.6,58.5,5,50,1,70,100,0.5,1,74,R,,,
players,Ben,McLemore,SG,25,195.58,195,25,49,0.3,0.6,0.667,1.2,0.348,2.2,0.415,0.2,16,0.7,40,0.2,70,85,0.3,0.2,77,,,,
players,Nemanja,Bjelica,PF,30,208.28,240,25,70,1.1,1.2,0.761,4.4,0.539,3.3,0.401,1.6,25,4.1,34,1.9,70,70,0.7,0.7,74,,,,
players,Troy,Williams,SF,24,198.12,205,25,60,0.4,0.7,0.6,2.6,0.556,2.1,0.318,0.6,15,2.2,45,0.5,70,91,0.5,0.4,65,,,,
players,Harry,Giles,PF,20,210.82,222,25,71,1.3,1.6,0.637,5.9,0.512,0.1,0,1.1,15,2.7,40,1.5,70,100,0.5,0.4,67,R,,,
players,De'Aaron,Fox,PG,21,193.04,171,25,70,2.8,5.1,0.727,10.7,0.482,2.9,0.371,0.5,50,3.2,96,7.3,70,97,1.6,0.6,90,CG,,,
players,Frank,Mason III,PG,24,182.6,190,25,34,0.9,1.5,0.684,2.8,0.543,1.7,0.219,0.2,1,1,71,2.2,84,79,0.4,0.1,49,,,,
players,Caleb,Swanigan,PF,21,205.5,250,25,65,0.7,0.7,0.667,2.3,0.571,0.3,0.133,1.3,1,2.7,17,1.3,75,85,0.7,0.3,52,,,,
players,Alec,Burks,SG,27,199.1,211,25,71,1,2.2,0.823,4.8,0.428,2.6,0.363,0.5,36,3.2,67,2,65,68,0.6,0.3,66,,,,
,,,,,,,,,,,,,,,,,,,,,,,,,,,,,
players,LaMarcus,Aldridge,PF,33,210.82,260,26,74,1.8,5.1,0.847,15.8,0.528,0.5,0.238,3.1,100,6.1,39,2.4,70,61,0.5,1.3,91,PT,,,
players,Chimezie,Metu,PF,21,208,225,26,85,0.5,0.6,0.765,1.9,0.339,0.1,0,0.3,16,0.9,29,0.4,70,76,0.2,0.1,37,R,,,
players,Rudy,Gay,SF,32,203.2,230,26,67,1.7,2.1,0.816,8.1,0.537,2.7,0.402,0.9,28,5.9,60,2.6,75,64,0.8,0.5,78,,,,
players,Davis,Bertans,PF,26,208.28,210,26,66,0.6,0.8,0.883,1.5,0.513,4.4,0.429,0.3,35,3.2,30,1.3,70,82,0.5,0.4,67,,,,
players,Jakob,Poeltl,C,23,213.36,248,26,80,0.6,1.2,0.533,3.8,0.645,0,0,2.3,19,3,26,1.2,70,91,0.4,0.9,60,,,,
players,Bryn,Forbes,SG,25,190.5,190,26,64,1,1,0.885,4.6,0.489,5,0.426,0.2,16,2.7,43,2.1,70,85,0.5,0,75,,,,
players,Dante,Cunningham,SF,31,203.2,230,26,70,0.3,0.3,0.778,1.5,0.484,1,0.462,0.8,16,2.2,42,0.8,70,67,0.4,0.2,70,,,,
players,Lonnie,Walker,SG,20,196,205,26,70,0.2,0.6,0.8,1.9,0.333,0.8,0.385,0,7,1,76,0.5,70,97,0.4,0.2,46,R,,,
players,Quincy,Pondexter,SF,30,200.66,220,26,70,0.2,0.8,0.81,0.8,0.575,0.3,0.333,0.2,15,0.7,25,0.5,72,70,0.2,0,25,,,,
players,Marco,Belinelli,SG,32,195.58,210,26,60,0.9,1.6,0.903,3.7,0.468,5,0.372,0.2,25,2.3,36,1.7,70,64,0.4,0.1,63,IH,,,
players,DeMar,DeRozan,SG,29,200.66,221,26,65,2.6,5.7,0.83,16.5,0.492,0.6,0.156,0.7,100,5.3,69,6.2,85,73,1.1,0.5,94,,,,
players,Patty,Mills,PG,30,182.88,185,26,53,1.1,1.3,0.854,3.2,0.475,4.9,0.394,0.3,55,1.9,48,3,72,70,0.6,0.1,70,,,,
players,Dejounte,Murray,PG,22,195.58,170,26,90,1.7,1.8,0.709,7.1,0.454,0.4,0.265,1.4,20,4.3,36,2.9,70,94,1.2,0.4,68,,,,
players,Derrick,White,PG,24,193,190,26,73,1.4,1.8,0.772,6,0.529,2.1,0.338,0.5,100,3.2,42,3.9,70,80,1,0.7,71,,,,
players,Drew,Eubanks,PF,21,208,245,26,61,0.3,0.6,0.846,1.1,0.577,0,0,0.3,18,1.2,26,0.3,70,73,0.1,0.2,29,,,,
,,,,,,,,,,,,,,,,,,,,,,,,,,,,,
players,Patrick,McCaw,SG,23,200.66,185,27,74,0.5,0.6,0.867,1.2,0.553,0.9,0.333,0.3,36,1.5,33,1,75,91,0.8,0.1,38,,,,
players,Malcolm,Miller,SF,25,201,210,27,42,0.1,0.4,0.75,0.5,0.2,2.1,0.476,0.1,0,0.4,69,0.1,85,73,0.1,0.1,19,,,,
players,Serge,Ibaka,PF,29,208.28,235,27,73,1.5,2.4,0.763,9.6,0.586,2.3,0.29,2.1,44,6,49,1.3,75,73,0.4,1.4,75,IH,,,
players,Eric,Moreland,PF,27,208.28,238,27,70,0.6,0.4,0.394,1.6,0.533,0,0,1.1,15,2.7,33,1,70,79,0.4,0.7,27,,,,
players,Kyle,Lowry,PG,32,182.88,196,27,86,2.8,3,0.83,4.4,0.514,7,0.347,0.6,100,4.2,81,8.7,90,64,1.4,0.5,98,CG,,,
players,Kawhi,Leonard,SF,27,200.66,230,27,95,2,7.1,0.854,13.8,0.542,5,0.371,1.3,100,6,71,3.3,70,79,1.8,0.4,91,HF,,,
players,Chris,Boucher,PF,26,208,210,27,64,0.3,0.5,0.867,1.4,0.564,1.3,0.324,0.6,39,1.4,31,0.1,70,73,0.2,0.9,17,,,,
players,Marc,Gasol,C,34,215.9,255,27,82,1.4,2,0.769,5.2,0.474,2,0.442,0.9,100,5.7,35,3.9,75,58,0.9,0.9,96,IH,,,
players,Norman,Powell,SG,25,193.04,215,27,67,1.1,1.3,0.827,3.8,0.543,2.8,0.4,0.3,28,2.1,47,1.5,70,85,0.7,0.2,76,,,,
players,Pascal,Siakam,PF,24,205.74,230,27,86,1.9,3.8,0.785,9.1,0.602,2.7,0.369,1.6,23,5.3,85,3.1,70,88,1.9,0.7,87,IH,,,
players,Danny,Green,SG,31,198.12,215,27,88,0.9,0.6,0.841,2.4,0.487,5.4,0.445,0.8,58,3.2,69,1.6,70,67,0.9,0.7,82,,,,
Rookies,OG,Anunoby,SF,21,203.2,215,27,77,0.8,0.9,0.581,3,0.574,3,0.332,0.9,15,2.1,57,0.7,70,97,0.7,0.3,80,,,,
players,Fred,VanVleet,PG,24,182.88,195,27,82,1.3,1.8,0.843,4.8,0.441,4.6,0.378,0.3,16,2.3,90,4.8,70,88,0.9,0.3,78,,,,
players,Jodie,Meeks,SG,31,193.04,210,27,58,0.8,1.9,0.879,3.5,0.471,3.9,0.373,0.3,16,1.8,41,1.1,70,67,0.8,0.1,51,,,,
players,Jeremy,Lin,PG,30,190.5,200,27,64,1.9,2.8,0.838,4.8,0.517,2.5,0.294,0.3,100,2.1,50,3.1,75,70,0.6,0.2,45,IH,,,
,,,,,,,,,,,,,,,,,,,,,,,,,,,,,
players,Tony,Bradley,C,21,205.74,235,28,60,1,0.7,0.5,5.3,0.5,0.1,0,3,16,2,30,0.3,70,88,0.7,0.7,40,,,,
players,Royce,O'Neale,SF,25,198.12,214,28,81,0.9,0.5,0.762,2,0.569,2.1,0.386,0.3,16,3.2,48,1.5,75,79,0.7,0.3,75,,,,
players,Jae,Crowder,SF,28,198.12,235,28,72,1.1,2.5,0.721,3.4,0.527,6.5,0.331,0.8,46,4.1,43,1.7,75,76,0.8,0.4,83,,,,
players,Dante,Exum,PG,23,198.12,190,28,66,1.2,2,0.791,4.3,0.464,1.5,0.29,0.4,18,1.2,34,2.6,70,91,0.3,0.1,69,,,,
players,Derrick,Favors,C,27,208.28,265,28,91,1.1,3,0.675,7.1,0.675,1,0.218,2.7,25,4.6,28,1.2,72,79,0.7,1.4,69,PT,,,
players,Rudy,Gobert,C,26,215.9,245,28,100,1.6,6.4,0.636,8.8,0.669,0,0,3.8,100,9,39,2,85,82,0.8,2.3,100,IH,,,
players,Donovan,Mitchell,SG,22,190.5,210,28,82,2.8,5.1,0.806,13.1,0.468,6.7,0.362,0.8,15,3.3,70,4.2,70,94,1.4,0.4,75,,,,
players,Georges,Niang,PF,25,203.2,230,28,64,0.4,0.4,0.833,1.3,0.566,1.8,0.41,0.2,15,1.3,25,0.6,70,85,0.2,0.1,41,,,,
players,Grayson,Allen,SG,23,195.6,210,28,49,0.9,1.6,0.75,2.1,0.443,2.6,0.323,0.1,16,0.5,70,0.7,32,55,0.2,0.2,78,R,,,
players,Joe,Ingles,PF,31,203.2,226,28,85,2.4,1.5,0.707,3.9,0.533,5.9,0.391,0.4,25,3.6,36,5.7,70,67,1.2,0.2,90,,,,
players,Thabo,Sefolosha,SF,34,200.66,220,28,88,0.5,0.4,0.636,1.4,0.421,1.6,0.436,0.2,18,2.3,46,0.5,70,58,0.9,0.1,58,,,,
players,Ricky,Rubio,PG,28,193.04,194,28,74,2.6,3.4,0.855,7,0.454,3.7,0.311,0.5,34,3.1,60,6.1,70,76,1.3,0.1,87,CG,,,
players,Kyle,Korver,SG,37,200.66,212,28,60,0.8,1.1,0.825,2.1,0.469,5.4,0.384,0.2,66,2.3,39,1.2,70,49,0.4,0.2,65,EX,,,
players,Raul,Neto,PG,26,185.42,179,28,65,0.9,0.9,0.848,2.7,0.535,1.6,0.333,0.2,16,1.5,30,2.5,70,82,0.4,0.1,52,,,,
players,Ekpe,Udoh,C,31,213.36,231,28,85,0.3,0.6,0.633,1.4,0.694,0,0,0.5,15,1.2,28,0.5,70,76,0.2,0.6,56,,,,
,,,,Age,Height,Weight,Team ID,Defence,TurnOvers,FTA,FTPerc,2PTA,2PTPerc,3PTA,ThreePerc,OffReb,Fame,DefReb,FastBreak,Assists,Personality,Potential,Steals,Blocks,Stamina,Trait,,,
players,Bradley,Beal,SG,25,195.58,207,29,60,2.7,5.5,0.808,12.4,0.548,7.3,0.351,1.1,63,3.9,77,5.5,70,85,1.5,0.7,100,EX,,,
players,Trevor,Ariza,SF,33,203.2,215,29,71,1.6,2.8,0.777,5,0.528,6.9,0.322,0.8,100,4.5,66,3.8,70,61,1.2,0.3,90,,,,
players,Jordan,McRae,SG,27,195.58,185,29,53,0.6,1.3,0.8,3.5,0.537,1.3,0.286,0.2,24,1.3,30,1.1,70,79,0.5,0.3,66,,,,
players,Sam,Dekker,PF,24,205.74,230,29,61,0.5,0.9,0.556,4.2,0.528,1.3,0.286,1.2,99,1.9,52,1,70,88,0.7,0.2,65,,,,
players,Ian,Mahinmi,C,32,210.82,250,29,80,0.6,1.8,0.689,2.6,0.5,0.5,0.188,1.4,16,2.4,25,0.7,70,64,0.7,0.5,46,,,,
players,Chasson,Randle,PG,25,188,185,29,40,0.9,1.3,0.694,2.1,0.441,2.3,0.4,0.2,15,0.9,32,2,70,82,0.5,0.1,45,,,,
players,Jeff,Green,SF,32,205.74,235,29,56,1.3,2.7,0.888,3.8,0.586,4.2,0.347,0.7,16,3.3,50,1.8,75,64,0.6,0.5,74,,,,
players,Dwight,Howard,C,33,210.82,265,29,80,2.6,7.2,0.574,11.2,0.559,0,0,3.1,100,9.3,38,1.3,68,61,0.6,1.6,89,HF,,,
players,Jabari,Parker,PF,23,203.2,250,29,50,2.7,3,0.684,8.2,0.613,3.2,0.296,1.5,100,5.7,84,2.7,80,91,0.9,0.6,76,,,,
players,Tomas,Satoransky,SG,27,200.66,210,29,58,1.5,2,0.819,4.6,0.524,2,0.395,1,16,2.5,56,5,70,79,1,0.2,80,,,,
players,Bobby,Portis,PF,23,210.82,230,29,68,1.6,1.7,0.809,8.5,0.458,4.3,0.403,2.3,5,6.4,31,1.5,75,91,0.9,0.4,82,,,,
players,John,Wall,PG,28,193.04,195,29,58,3.8,5.5,0.697,12,0.507,5.3,0.302,0.5,100,3.2,100,8.7,85,76,1.5,0.9,95,CG,,,
players,Troy,Brown,SF,19,200.7,210,29,58,0.6,0.9,0.681,3.2,0.455,1.3,0.319,0.7,19.5,2.1,72,1.5,55,74,0.4,0.1,53,R,,,
players,Wesley,Johnson,SF,31,200.66,215,29,55,0.5,0.8,0.7,1.2,0.286,2.2,0.231,0.2,19,1.3,31,1.5,70,67,0.6,0.2,67,,,,
players,Thomas,Bryant,C,21,208.28,241,29,75,0.8,1.9,0.781,5.6,0.685,1.3,0.333,1.6,15,6.3,25,1.3,70,97,0.3,0.9,67,,,,
,,,,,,,,,,,,,,,,,,,,,,,,,,,,,
players,Jordan,Mickey,PF,24,203.2,235,-1,61,0.5,0.7,0.6,2,0.5,0.1,0,0.9,16,1,25,0.4,70,88,0.1,0.2,30,,,,
players,Marcus,Thornton,SG,29,193.04,205,-1,61,0.8,0.8,0.852,3.9,0.431,2.4,0.35,0.7,15,1.6,31,1.2,70,67,0.6,0.1,75,,,,
players,Sheldon,McClellan,SG,24,198.12,200,-1,61,0.1,0.9,0.857,1.6,0.459,1.1,0.231,0.2,15,1.1,32,0.7,70,82,0.3,0.1,45,,,,
players,Jared,Sullinger,PF,24,205.74,260,-1,76,0.2,0.8,0.5,2.9,0.414,1.7,0.176,0.9,17,1.6,25,0.2,70,82,0.4,0.1,25,,,,
players,Jason,Smith,C,32,213.36,245,-1,73,0.8,0.6,0.69,3.6,0.54,0.3,0.412,0.9,16,2.2,27,0.3,70,64,0.3,0.7,95,,,,
players,Anthony,Bennett,PF,25,203.2,235,-1,55,1.6,4.9,0.722,6,0.568,6.5,0.271,3.4,15,7.2,28,1.6,70,85,0.7,0.4,80,,,,
players,Andrew,Nicholson,PF,29,205.74,250,-1,70,0.4,0.4,0.583,2.2,0.45,0.6,0.188,0.4,15,0.9,26,0.3,70,73,0.4,0.2,57,,,,
players,Mario,Chalmers,PG,32,187.96,190,-1,79,2.5,2.9,0.786,5.1,0.477,4.5,0.358,0.5,15,2.8,50,5,78,64,2,0.2,70,,,,
players,Norris,Cole,PG,30,187.96,175,-1,70,2.3,1.7,0.741,8.2,0.438,2.9,0.326,0.4,15,2.8,50,4.4,70,70,1.2,0.2,80,,,,
players,Rashad,Vaughn,SG,22,198.12,202,-1,64,0.3,0.1,0.5,1.6,0.382,2.4,0.353,0,17,1.1,31,0.4,70,94,0.5,0.2,43,,,,
players,Spencer,Hawes,C,30,215.9,245,-1,79,1.1,1,0.882,4.7,0.54,1.6,0.291,0.9,16,3.3,28,1.8,70,70,0.4,0.7,67,,,,
players,Josh,McRoberts,PF,31,208.28,240,-1,67,1,0.4,0.667,4,0.356,1.4,0.419,1,15,2.3,25,2.3,75,67,0.5,0.2,50,,,,
players,Luke,Babbitt,SF,29,205.74,225,-1,64,0.4,0.4,0.733,1.4,0.379,2.9,0.385,0.2,17,2,28,0.5,70,73,0.4,0.2,80,,,,
players,Michael,Beasley,PF,30,208.28,235,-1,70,1.2,1.9,0.734,6,0.522,0.8,0.438,0.7,30,2.8,40,1,67,70,0.5,0.5,84,,,,
players,Marcelo,Huertas,PG,35,190.5,200,-1,55,0.9,0.8,0.529,2.1,0.435,0.8,0.222,0.1,18,1,31,2.3,70,55,0.5,0.1,42,,,,
players,Nick,Young,SG,33,200.66,210,-1,46,0.6,1.6,0.848,3.8,0.497,7,0.413,0.5,83,1.9,61,1,70,61,0.6,0.3,85,SP,,,
players,Chinanu,Onuaku,C,21,208.28,245,-1,50,0,1,1,1,1,0,0,0.5,21,1.5,25,0.5,70,94,0.5,0,67,,,,
players,Kyle,Wiltjer,PF,25,208.28,240,-1,61,0.3,0.2,0.5,0,0,1.1,0.3,0.3,19,0.4,25,0,70,82,0,0.1,25,,,,
players,Carmelo,Anthony,SF,34,203.2,240,-1,58,2,5.3,0.828,13.4,0.469,5.6,0.354,0.8,100,5.2,43,2.9,75,58,0.8,0.4,98,HH,,,
players,Joe,Young,PG,26,187.96,180,-1,61,0.2,0.6,0.692,1.8,0.415,0.9,0.19,0,15,0.6,33,0.6,70,82,0.2,0,46,,,,
players,Isaiah,Canaan,SG,27,182.88,201,-1,64,0.7,0.9,0.889,2.4,0.5,2.9,0.274,0.2,17,1.3,44,1.1,70,79,0.7,0,58,,,,
players,Kevin,Seraphin,C,29,208.28,285,-1,70,0.5,0.2,0.667,3.5,0.531,0,0,0.9,15,2.2,25,0.5,70,73,0.1,0.4,59,,,,
players,Monta,Ellis,SG,33,190.5,185,-1,64,1.9,2,0.798,5.3,0.454,1.5,0.288,0.2,21,2.7,45,3.1,65,61,1,0.4,83,,,,
players,Joel,Bolomboy,PF,24,205.74,235,-1,60,0.1,0.4,0.5,0.4,0.75,0.1,0,0.1,16,1,30,0.1,70,88,0.1,0.1,40,R,,,
players,Jeff,Withey,C,28,213.36,231,-1,85,0.3,1,0.786,1.6,0.565,0,0,0.8,15,1.5,28,0.1,70,76,0.3,0.7,56,,,,
players,Diamond,Stone,C,21,210.82,255,-1,70,0.2,0.8,1,2.2,0.273,0,0,0.2,15,0.6,25,0,72,97,0,0.2,40,,,,
players,Marreese,Speights,C,31,208.28,255,-1,79,0.7,2.3,0.877,3.8,0.495,3.6,0.405,1.2,24,3.6,34,0.9,72,67,0.3,0.5,100,,,,
players,Cole,Aldrich,C,30,210.82,250,-1,82,0.3,0.4,0.667,1.5,0.521,0,0,1,21,2,25,0.5,70,70,0.5,0.4,89,,,,
players,Adreian,Payne,PF,27,208.28,237,-1,73,0.6,1.3,0.8,2.4,0.517,0.8,0.2,0.5,15,1.2,28,0.3,70,79,0.4,0.3,22,,,,
players,Omri,Casspi,SF,30,205.74,225,-1,61,0.8,1,0.571,4,0.477,1.3,0.379,0.9,18,3.2,47,1.2,70,70,0.5,0,50,IH,,,
players,Ron,Baker,SG,25,193.04,220,-1,64,0.8,0.7,0.611,1.8,0.413,1.4,0.324,0.2,25,1.3,42,1,70,85,0.6,0.1,45,,,,
players,Brandon,Jennings,PG,29,185.42,170,-1,55,1.9,2.5,0.754,4,0.425,3.6,0.344,0.4,31,2.3,43,5,60,73,1,0.1,100,SP,,,
players,Mindaugas,Kuzminskas,SF,29,205.74,215,-1,55,0.7,0.9,0.791,2.8,0.512,2.5,0.33,0.7,27,1.2,39,1,70,73,0.5,0.2,85,,,,
players,Marshall,Plumlee,C,26,213.36,250,-1,61,0.6,0.9,0.5,0.6,0.75,0,0,1.1,16,1.3,34,0.6,70,82,0.1,0.3,25,,,,
players,Cameron,Payne,PG,24,190.5,185,-1,61,0.7,0.3,1,3.8,0.344,2.5,0.275,0.1,21,1.4,28,2,85,88,0.4,0.3,30,,,,
players,Josh,Huestis,PF,27,200.66,230,-1,73,0,0,0.5,2,0.375,2,0.625,0.7,16,1.7,25,1,70,79,0.2,0.5,45,,,,
players,Stephen,Zimmerman,C,22,213.36,240,-1,65,0,0.1,0.3,1.4,0.455,0,0,0.5,15,1.3,25,0.1,70,94,0.1,0.1,20,R,,,
players,Tyler,Ulis,PG,23,177.8,150,-1,64,0.7,0.4,0.786,2.8,0.385,0.4,0.357,0.2,16,0.5,30,1,70,91,0.6,0,66,R,,,
players,Malachi,Richardson,SG,21,198.12,205,-1,55,0.4,0.9,0.75,1.6,0.536,1.3,0.273,0.1,15,0.6,25,0.5,70,91,0.2,0.1,65,R,,,
players,Jason,Thompson,C,32,210.82,250,-1,64,1.8,3.6,0.657,10.2,0.5,0.1,0.143,3.1,15,6.4,28,1.5,70,64,0.7,1,76,,,,
players,Troy,Williams,SF,24,200.66,218,-1,82,1.1,1,0.6,3.4,0.506,1.7,0.244,0.3,16,1.6,53,0.8,70,88,1,0.4,49,SP,,,
players,Dorell,Wright,SF,33,205.74,205,-1,73,1.4,2.4,0.806,6.5,0.469,5,0.365,1.1,15,5,38,2.5,70,61,1.2,0.8,60,,,,
players,Malcolm,Delaney,PG,27,190.5,190,-1,70,1.4,1.3,0.794,4.1,0.451,1.6,0.274,0.1,16,1.7,32,2.8,70,73,0.6,0,100,,,,
players,James,Young,SG,23,198.12,215,-1,61,0.1,0.4,0.8,0.6,0.444,0.9,0.333,0.2,16,0.8,25,0.3,75,91,0.2,0,30,,,,
players,Demetrius,Jackson,PG,24,185.42,201,-1,49,0,1.5,0.5,0.8,0.667,0.3,1,0.5,17,0.5,33,0.8,70,88,0,0,25,,,,
players,Trevor,Booker,PF,31,203.2,228,-1,73,1.8,1.8,0.647,7.2,0.554,1.1,0.283,2.1,20,6.5,51,2.3,80,67,1.3,0.5,91,,,,
players,Quincy,Acy,PF,28,200.66,240,-1,58,0.4,1.1,0.85,1.9,0.457,1.7,0.467,0.7,15,1.4,28,0.1,85,76,0.2,0.4,75,,,,
players,Sean,Kilpatrick,SG,29,193.04,210,-1,55,2.3,3.5,0.836,6.5,0.464,4.4,0.355,0.3,19,3.8,65,2.3,75,73,0.7,0.1,98,R,,,
players,Paul,Zipser,SF,25,203.2,215,-1,64,0.7,1.1,0.8,2,0.4,2,0.289,0.3,17,1.9,31,0.5,70,88,0.3,0.2,38,R,,,
players,Alan,Anderson,SF,36,198.12,220,-1,58,0.3,0.5,0.7,1.5,0.357,1.7,0.344,0.2,18,0.8,25,0.5,70,52,0.2,0,36,,,,
players,Brandan,Wright,PF,31,208.28,210,-1,76,0.3,0.5,0.5,4,0.625,0.3,0,2,15,1.3,25,0,70,67,0.5,0.8,25,,,,
players,Brandon,Bass,PF,33,203.2,250,-1,70,0.7,1.5,0.902,3.6,0.598,0.1,0.5,0.7,18,1.7,38,0.5,70,61,0.2,0.2,66,,,,
players,Andrew,Harrison,PG,24,198.12,213,-1,73,1.3,3,0.763,3.1,0.358,2.4,0.262,0.4,16,1.6,37,3.1,70,88,0.9,0.4,94,R,,,
players,Wade,Baldwin IV,PG,22,193.04,202,-1,76,1.3,1.3,0.844,2.8,0.364,0.8,0.111,0.3,17,1.1,31,2,70,94,0.6,0.3,47,R,,,
players,Shabazz,Muhammad,SF,26,198.12,223,-1,52,0.7,2.1,0.802,5.3,0.465,1.8,0.453,1.1,17,1.9,53,0.4,75,82,0.3,0.1,91,EX,,,
players,Brice,Johnson,PF,24,208.28,230,-1,60,0.5,0.5,0.708,2,0.575,0.25,0.333,2.2,16,1,25,0.2,80,88,0.5,1,25,R,,,
players,Tarik,Black,C,27,205.74,250,-1,61,0.8,1.9,0.716,4.6,0.515,0,0,2.4,20,3.2,30,0.7,75,79,0.4,0.5,75,,,,
players,Marcin,Gortat,C,34,210.82,240,-1,73,1.6,2.1,0.67,8.7,0.599,0,0,3.2,81,8.3,33,1.6,67,58,0.6,1,100,IH,,,
players,Luc,Mbah a Moute,SF,32,203.2,230,-1,73,0.7,1.3,0.719,3.3,0.527,1.5,0.397,0.7,23,1.7,41,0.4,70,64,1,0.6,96,,,,
players,DeAndre,Liggins,SG,30,198.12,209,-1,73,0.8,0.7,0.643,1.7,0.368,1,0.375,0.3,35,1.4,33,1,75,70,0.8,0.3,83,,,,
players,Kay,Felder,PG,23,175.26,176,-1,67,0.7,1.4,0.698,3.7,0.423,0.7,0.35,0.1,27,1,30,1.6,70,91,0.4,0.2,60,,,,
players,Derrick,Williams,PF,28,203.2,240,-1,70,1.2,4.9,0.62,6.5,0.484,2.7,0.205,1.6,16,5.5,34,1.4,72,79,0.9,0.5,52,,,,
players,Ty,Lawson,PG,31,180.34,195,-1,58,1.8,2.6,0.809,5.5,0.484,1.9,0.29,0.7,17,2,42,4.5,70,67,1.1,0.1,95,,,,
players,Georgios,Papagiannis,C,21,215.9,240,-1,46,0.5,0,0.5,0.5,1,0,0,0,27,0.5,25,0,70,97,0,0,50,,,,
players,A.J.,Hammons,C,26,213.36,260,-1,73,0.2,0.6,0.2,0.9,0.313,0.4,0.667,0.3,15,0.9,27,0.1,70,82,0,0.4,37,,,,
players,Darrell,Arthur,PF,30,203.2,235,-1,55,1,0.4,0.9,2.6,0.456,2.9,0.507,0.7,16,2.1,33,1.1,70,70,0.3,0.5,47,,,,
players,Nicolas,Brussino,SF,26,203.2,195,-1,73,0.3,0.3,0.667,0.5,0.563,1,0.286,0.3,16,0.9,26,0.6,70,85,0.3,0.1,65,,,,
players,Johnny,O'Bryant III,PF,25,205.74,257,-1,64,0.3,0.7,1,2,0.333,0.7,0.5,0.9,15,1.5,25,0.3,70,85,0,0,80,,,,
players,Darrun,Hilliard,SG,25,198.12,205,-1,64,0.8,0.9,0.708,2.3,0.367,1.3,0.257,0.1,15,1,30,0.9,70,85,0.3,0,54,,,,
players,Michael,Gbinije,SG,26,200.66,200,-1,49,0,0.2,1,0.7,0.333,0.4,0,0.2,15,0.1,29,0.2,70,82,0,0,25,,,,
players,James Michael,McAdoo,PF,26,205.74,230,-1,79,0.5,0.5,0.636,1.9,0.6,0.1,0,0.5,25,1.1,30,0.4,70,82,0.2,0.4,41,,,,
players,Briante,Weber,PG,26,187.96,165,-1,75,1.3,0.6,0.75,4.9,0.412,0.7,0,1.1,15,2.4,25,3,70,82,1.3,0.4,80,,,,
players,Bobby,Brown,PG,34,187.96,175,-1,55,0.1,0,0.81,0.9,0.231,0.9,0.286,0,17,0.3,28,0.1,70,58,0,0,28,,,,
players,K.J.,McDaniels,SF,25,198.12,205,-1,70,0.4,0.4,0.9,1.4,0.526,0.9,0.32,0.1,23,0.9,35,0.1,80,85,0.2,0.3,53,,,,
,,,,,,,,,,,,,,,,,,,,,,,,,,,,,
Rookies,Zion,Williamson,PF,18,201,285,,80,2.4,6.2,0.64,11,0.747,2.2,0.338,3.5,100,5.4,80,2.1,93,100,2.1,1.8,80,USA,North Carolina,Duke,R
Rookies,Ja,Morant,PG,19,190,175,,78,1.5,8.2,0.813,11.3,0.556,4.8,0.363,1.2,60,4.5,83,10,86,100,1.8,0.8,88,USA,Kentucky,Murray State,R
Rookies,RJ,Barrett,SG,19,201,202,,76,3.2,5.9,0.665,12.2,0.529,6.2,0.308,1.6,40,6,82,4.3,71,100,0.9,0.4,89,USA,North Carolina,Duke,R
Rookies,Deandre,Hunter,SF,21,201,225,,81,1.4,4.1,0.783,7.6,0.55,2.8,0.438,1.4,27,3.7,70,2,83,99,0.6,0.6,71,USA,Virginia,Virginia,R
Rookies,Darius,Garland,PG,19,188,175,,68,3,3.2,0.75,6.2,0.581,4.6,0.478,0.4,30,3.4,74,2.6,56,99,0.8,0.4,82,USA,Tennessee,Vanderbilt,R
Rookies,Jarrett,Culver,SG,20,196,195,,82,2.7,5.5,0.707,10.3,0.526,4.2,0.304,1.1,36,5,72,3.7,74,98,1.5,0.6,82,USA,Texas,Texas Tech,R
Rookies,Coby,White ,PG,19,196,185,,70,2.7,3.7,0.8,6.1,0.5,6.6,0.353,0.6,14.5,3.2,84,4.1,63,97,1.1,0.3,70,USA,North Carolina,UNC,R
Rookies,Jaxson ,Hayes,C,19,211,220,,80,0.9,3.1,0.74,5.3,0.728,0,0,3.3,35,5,42,0.3,96,95,0.6,2.2,66,USA,Texas,Texas,R
Rookies,Rui,Hachimura,PF,21,203,230,,77,1.8,6,0.739,11.6,0.606,1,0.417,1.4,20,5.1,50,1.5,78,93,0.9,0.7,67,USA,Washington,Gonzaga,R
Rookies,Cam,Reddish,SF,19,203,218,,69,2.7,3.2,0.772,4.6,0.394,7.4,0.333,0.6,14.5,3.1,60,1.9,85,100,1.6,0.6,62,USA,North Carolina,Duke,R
Rookies,Cameron ,Johnson,SF,23,206,210,,60,1.5,3.1,0.818,5.8,0.556,5.8,0.457,1.8,9,3.9,59,2.4,54,78,1.2,0.3,62,USA,North Carolina,UNC,R
Rookies,PJ,Washington,PF,20,203,228,,70,2,5.1,0.663,8.2,0.549,2.2,0.423,2.3,21,5.2,61,1.8,75,80,0.8,1.2,73,USA,Kentucky,Kentucky,R
Rookies,Tyler,Herro,SG,19,196,195,,65,1.6,2.5,0.935,6.3,0.538,4.6,0.355,0.4,14.5,4.1,69,2.5,58,79,1.1,0.3,77,USA,Kentucky,Kentucky,R
Rookies,Romeo,Langford,SG,19,198,215,,70,2.1,6.1,0.772,8.4,0.53,3.9,0.272,1.4,14,4,70,2.3,69,89,0.8,0.8,68,USA,Indiana,Indiana,R
Rookies,Sekou,Doumbouya,PF,18,210.3,230,,62,1.2,1.1,0.757,3.8,0.605,2.5,0.343,0.9,12.5,2.4,43,0.7,53,88,0.7,0.5,70,France,,Limoges CSP,R
Rookies,Chuma,Okeke,PF,20,203,230,,66,1.7,2.4,0.722,5.2,0.496,3.7,0.387,2.8,14.5,4.8,60,1.9,83,86,1.8,1.2,72,USA,Alabama,Auburn,R
Rookies,Nickeil,Alexander - Walker,SG,20,196,205,,69,2.9,4.2,0.778,7.2,0.537,4.6,0.374,0.5,21.5,3.6,68,4,36,84,1.9,0.5,78,USA,Virginia,Virginia,R
Rookies,Goga,Bitadze,C,19,210,251,,75,1.4,5.4,0.714,5.9,0.597,1.2,0.313,2.5,11,3.8,53,1.2,49,85,0.5,2.3,70,Montenegro,,Buducnost VOLI,R
Rookies,Luka,Samanic,PF,19,210,230,,73,1.38,2.52,0.722,5.78,0.484,1.6,0.338,1.12,25,3.66,58,0.88,70,84,0.46,0.36,74,Slovenia,,KK Petrol Olimpija,R
Rookies,Matisse,Thybulle,SF,22,196,195,,82,1.8,1.9,0.855,3.3,0.555,4.2,0.305,0.8,12,2.3,75,2.1,86,76,3.5,2.3,86,USA,Washington,Washington,R
Rookies,Brandon,Clarke,PF,22,203,215,,76,1.5,4.2,0.694,9.7,0.705,0.4,0.267,3.1,3,5.5,69,1.9,71,80,1.2,3.2,77,USA,Washington,Gonzaga,R
Rookies,Grant,Williams,PF,20,201,236,,70,2.2,7,0.819,10,0.593,1.2,0.326,2.2,22,5.3,64,3.2,62,78,1.1,1.5,80,USA,Tennessee,Tennessee,R
Rookies,Darius,Bazley,SF,19,206,210,,56,2.5,3.5,0.571,5.8,0.571,1.2,0.429,0.1,4,3.5,70,1.5,56,80,0.5,1.5,55,USA,Ohio,,R
Rookies,Ty,Jerome,PG,21,196,195,,60,1.6,2.5,0.736,5.7,0.469,5.4,0.399,0.5,25,3.8,80,5.5,70,73,1.5,0,82,USA,Virginia,Virginia,R
Rookies,Nassir,Little,SF,19,201,220,,73,1.3,2.8,0.77,6.2,0.527,1.4,0.269,1.6,8,3,71,0.7,91,90,0.5,0.5,69,USA,North Carolina,UNC,R
Rookies,Dylan,Windler,SG,22,203,200,,60,2.1,4.2,0.827,6.6,0.659,7.1,0.429,1.9,6,8.9,65,2.5,70,68,1.4,0.6,61,USA,Tennessee,Belmont,R
Rookies,Mfiondu,Kabengele,PF,21,208,250,,71,1.3,4.9,0.761,7.1,0.534,1.8,0.369,2.1,6,5.8,54,0.3,91,76,0.6,1.5,72,USA,Florida,Florida St,R
Rookies,Jordan,Poole,SG,20,196,195,,62,1.5,2.4,0.833,4.5,0.518,5.5,0.369,0.2,1,2.8,48,2.2,91,76,1.1,0.2,80,USA,Michigan,Michigan,
Rookies,Keldon,Johnson,SF,19,198,211,,80,1.6,4.2,0.703,6.9,0.498,3.2,0.391,1.3,8,4.5,60,1.6,52,78,0.8,0.2,71,USA,Kentucky,Kentucky,R
Rookies,Kevin,Porter Jr.,SG,19,198,218,,59,1.9,2.2,0.522,4.2,0.517,3.2,0.412,1,11,3,69,1.4,50,80,1.8,0.5,60,USA,South California,USC,R
Rookies,Nicolas,Claxton,C,20,211,215,,66,2.1,6,0.641,7.3,0.509,2,0.281,2.3,8,6.3,52,1.8,49,75,1.1,2.1,65,USA,Georgia,Georgia,R
Rookies,Kz,Okpala,SF,20,203,216,,62,2.9,6,0.671,9.7,0.493,3,0.368,1.2,13,4.5,60,2,46,74.8,1,0.5,59,USA,California,Standford,R
Rookies,Carsen,Edwards,PG,21,185,200,,55,3.1,6.1,0.837,9,0.44,10.6,0.355,0.4,4,3.2,70,2.9,66,66.6,1.3,0.3,58,USA,Indiana,Purdue,R
Rookies,Bruno,Fernando,C,20,208,240,,70,2.8,4.3,0.779,8.1,0.618,0.3,0.3,2.9,18,7.7,40,2,63,82.4,0.6,1.9,74,USA,Maryland,Maryland,R
Rookies,Marcos,Silva,SG,20,195,190,,59,1.1,2.1,0.735,7.6,0.496,3.6,0.427,0.7,9,2.1,56,1,52,58,0.7,0.1,68,Brazil,,,R
Rookies,Cody,Martin,SF,23,201,205,,65,1.9,2.9,0.763,6,0.574,2.8,0.358,0.9,14,3.5,57,4.9,90,70.8,1.4,0.7,80,USA,Nevada,Nevada,R
Rookies,Deividias,Sirvydis,SG,19,202,195,,70,0.5,1,0.765,1.2,0.534,2.4,0.463,0.3,2,1.9,64,0.6,96,85,0.1,0,73,Lithunia,,,R
Rookies,Daniel,Gafford,PF,20,211,233,,71,2.4,6,0.591,10.1,0.66,0,0,2.8,1,5.8,47,0.7,49,74,0.9,2,62,USA,Arkansas,Arkansas,R
Rookies,Alen,Smailagic,PF,18,208,213,,62.3,1.4,2.7,0.659,5.2,0.577,1.7,0.244,2.1,17,1.9,53,1,74,80,0.9,0.9,70,Serbia,,,R
Rookies,Justin ,James,SG,22,201,190,,53,4.2,8.4,0.741,12.1,0.459,5.3,0.296,1,7,7.5,40,4.4,66,46.4,1.5,0.6,47,USA,Wyoming,Wyoming,R
Rookies,Eric,Pashall,PF,22,206,255,,61.3,2.3,5,0.746,6.5,0.532,5.6,0.348,1.3,19,4.9,56,2.1,29,68,0.7,0.5,76,USA,Pennsylvania,Villanova,R
Rookies,Admiral,Schofield,SG,22,198,241,,47,1.9,2.3,0.698,8.8,0.505,4.8,0.418,1.2,3,5,35,2,67,39,0.9,0.5,45,USA,Tennessee,Tennessee,R
Rookies,Jaylen,Nowell,SG,19,193,200,,44,2.9,3.4,0.779,8.8,0.525,3.2,0.44,1,11,4.3,77,3.1,83,62.8,1.3,0.3,75,USA,Washington,Washington,R
Rookies,Bol,Bol,C,19,218,235,,70,2,4.1,0.757,11.9,0.57,2.8,0.52,2.1,30,7.4,60,1,81,90,0.8,2.7,60,USA,Oregon,Oregon,R
Rookies,Isaiah,Roby,PF,21,203,240,,65,2,3.8,0.677,6.9,0.496,2.4,0.333,1.9,7,5,27,1.9,54,74.2,1.3,1.9,71,USA,Nebraska,Nebraska,R
Rookies,Talen,Horton-Tucker,SF,18,193,233,,57,1.7,2.5,0.625,6.4,0.475,4.5,0.308,0.7,4,4.2,72,2.3,43,70,1.3,0.7,90,USA,Iowa,Iowa,R
Rookies,Ignas,Brazdeikis,SF,20,201,215,,54,1.2,4.1,0.773,7.1,0.5,3.9,0.392,1.2,3,4.3,58,0.8,68,68.2,0.7,0.5,71,USA,Michigan,Michigan,R
Rookies,Terance,Mann,SF,22,198,215,,61.7,1.8,3.4,0.79,5.8,0.547,2.1,0.39,2.5,7,4,62,2.5,86,61.6,0.7,0.3,82,USA,Florida,Florida St,R
Rookies,Quinndary,Weatherspoon,SG,22,193,205,,60.3,2.9,5.4,0.804,8.2,0.564,4.1,0.396,1.3,6,4.7,38,2.8,36,50,1.7,0.3,68,USA,Mississippi,Mississippi St,R
Rookies,Jarrell,Brantley,PF,23,201,255,,49,2.6,4.9,0.785,10.4,0.582,3.5,0.328,1.7,19,6.7,34,2.5,69,27,1.4,0.9,63,USA,South Carolina,Charleston,R
Rookies,Tremont,Waters,PG,21,180,175,,38,3.5,3.9,0.813,6.9,0.507,5.2,0.327,0.3,2,2.5,80,5.8,69,50.8,2.9,0.1,39,USA,Louisiana,LSU,R
Rookies,Jalen,McDaniels,PF,21,208,195,,60.3,2.4,3.7,0.732,11.2,0.495,2.2,0.32,2,1,6.3,24,2.1,30,14.6,1.1,0.5,48,USA,California,San Diego,R
Rookies,Justin ,Wright-Foreman,PG,21,188,190,,20,2.6,5.9,0.864,11.1,0.568,7.4,0.425,0.3,1,3.7,21,2.9,43,17.4,0.9,0.2,31,USA,New York,Hofstra,R
Rookies,Marial,Shayok,PF,23,198,198,,52,2.7,3.6,0.878,8.2,0.568,5.4,0.386,1.4,5,5.4,46,2,45,20,0.9,0.2,42,USA,Iowa,Iowa State,R
Rookies,Kyle,Guy,PG,21,188,175,,39,1.4,2.2,0.833,7.4,0.426,4.2,0.491,0.7,10,3.8,69,2.1,50,39,0.7,0.1,55,USA,Virginia,Virginia,R
Rookies,Jaylen ,Hands,PG,20,190,180,,36,3.2,3.3,0.78,6.2,0.447,5.4,0.373,0.4,2,3.3,25,6.1,100,40.8,1.3,0.2,57,USA,California,UCLA,R
Rookies,Jordan,Bone,PG,21,190,180,,30,2,2.5,0.835,7,0.525,3.8,0.355,0.5,14,2.7,47,5.8,42,35,0.7,0.1,46,USA,Tennessee,Tennessee,R
Rookies,Miye,Oni,SG,21,198,210,,43,2.6,4.7,0.793,7.9,0.487,5.2,0.371,0.7,3,5.6,61,3.6,70,53.4,0.9,1.3,30,USA,Conneticut,Yale,R
Rookies,Jalen,Lacque,PG,19,193,185,,52.7,1,3.5,0.857,6,0.458,1.25,0.2,0,10,2.5,80,2,62,80,1.25,0.25,46,USA,,,R
Rookies,Naz,Reid,PF,22,198,220,,41.3,2.14,2.43,0.882,9.29,0.462,1.14,0.3,2,2,3.43,48,2,92,78,0.29,0.71,62,USA,,,R
Rookies,Tacko,Fall,C,23,229,310,,75,0.8,1.2,0.333,4.4,0.773,0,0,1.8,15,2.2,25,0.2,70,100,0,1.4,55,Senegal,,,R
Rookies,Terence,Davis,SF,22,193,205,,41,0.86,0.67,0.5,6.67,0.449,8,0.417,0.67,15,5.33,70,5,70,97,1.33,1,55,USA,,,R
Rookies,Nigel,Hayes,PF,22,200.66,245,,72,1.14,4.77,0.622,6.2,0.471,1.94,0.27,1.28,15,2.64,25,1.97,70,88,0.64,0.22,55,USA,Texas,SMU,R
Rookies,Chris,Boucher,PF,24,208.28,200,,82,0.69,2.09,0.6,4.46,0.617,2.71,0.29,1.33,15,3.16,25,0.35,70,82,0.35,1.83,55,Lithuania,Arizona,Arizona,R
Rookies,Viny,Okouo,C,19,218.44,240,,48,0.72,0.89,0.438,1.44,0.626,0,0,2.15,15,3.67,25,0.33,70,97,0.67,0.7,50,USA,Wisconsin,Wisconsin,R
Rookies,Isaiah,Briscoe,PG,20,190.5,218,,58,1.73,3.82,0.714,7.02,0.473,1.46,0.304,1,15,2.45,25,2.94,70,94,0.57,0.09,50,USA,Oregon,Oregon,R
Rookies,Malcolm,Hill,SF,21,198.12,230,,57,1.31,4.8,0.787,5.92,0.474,3.87,0.288,0.67,15,3.17,25,1.89,70,91,0.67,0.27,45,Republic of the Congo,,FMP,R
,,,,,,,,,,,,,,,,,,,,,,,,,,,,,
,Team ID,First,Last,Age,Position,Authority,Expectation,Personality,ShotSelection,BallMovement,Rebounding,Defence,Structure,DevShot,DevBallMovement,DevRebounding,DevDefence,DevFitness,FindTalent,FindPotential,Persuasion,Dedication,Desire,Potential,,,,,
Coaches,0,Lloyd,Pierce,43,HC,60,71,76,54,69,72,60,80,60,68,55,62,41,23,34,67,100,84,80,,,,,
Coaches,0,Melvin,Hunt,49,AC,55,71,65,56,60,65,74,55,62,51,60,61,90,63,59,68,79,12,75,,,,,
Coaches,1,Brad,Stevens,42,HC,80,67,50,75,62,65,90,60,62,76,75,64,57,43,30,78,87,90,90,,,,,
Coaches,1,Jay,Larranaga,44,AC,60,68,70,57,55,68,68,60,60,51,66,77,69,66,62,67,68,4,70,,,,,
Coaches,2,Kenny,Atkinson,51,HC,75,50,72,63,74,60,56,50,53,85,54,66,50,45,67,63,76,89,85,,,,,
Coaches,2,Travon,Bryant,36,AC,65,60,70,67,68,63,69,60,67,62,60,63,52,59,57,68,73,64,60,,,,,
Coaches,3,James,Borrego,41,HC,57,56,72,60,65,75,80,59,53,61,80,85,49,55,54,73,80,12,70,,,,,
Coaches,3,Stephen,Silas,46,AC,70,61,85,53,57,86,80,65,62,57,76,83,70,50,60,69,84,36,75,,,,,
Coaches,4,Jim,Boylen,53,AC,55,70,55,52,54,63,70,63,62,62,60,66,98,61,60,64,63,74,70,,,,,
Coaches,4,Pete,Myers,55,AC,45,66,70,48,50,65,45,60,65,67,70,71,98,61,60,64,63,74,90,,,,,
Coaches,5,Larry,Drew,63,AC,65,80,55,68,73,60,64,75,53,73,56,63,67,53,59,58,89,38,55,,,,,
Coaches,5,MIke,Gerrity,45,AC,51,74,60,42,74,86,42,63,61,70,64,52,85,53,59,58,89,38,55,,,,,
Coaches,6,Rick,Carlisle,59,HC,73,69,75,80,85,70,65,75,70,60,65,70,60,30,35,80,85,99,70,,,,,
Coaches,6,Darrell,Armstrong,50,AC,55,57,65,59,64,48,54,55,52,71,46,55,76,79,53,59,58,53,65,,,,,
Coaches,7,Mike,Malone,45,HC,61,62,75,70,70,65,75,60,50,65,40,80,75,65,45,80,70,32,75,,,,,
Coaches,7,Ryan,Bowen,43,AC,55,57,65,59,64,48,54,55,52,71,46,55,76,79,53,59,58,53,65,,,,,
Coaches,8,Dwane,Casey,59,HC,65,63,75,68,66,74,76,70,68,66,64,80,59,32,22,81,78,32,65,,,,,
Coaches,8,Sidney,Lowe,59,AC,70,52,80,79,82,62,64,53,81,90,57,67,81,53,67,67,79,48,75,,,,,
Coaches,9,Steve,Kerr,51,HC,82,91,81,88,82,65,69,69,94,91,54,66,79,63,39,75,79,88,88,,,,,
Coaches,9,Mike,Brown,48,AC,65,56,65,57,59,51,85,62,48,54,55,82,73,66,54,76,73,38,72,,,,,
Coaches,10,Mike,D'Antoni,65,HC,80,64,80,72,75,77,70,61,75,54,80,80,50,39,70,82,85,75,85,,,,,
Coaches,10,John,Lucas,65,AC,50,56,55,53,62,55,56,46,52,62,48,62,61,53,66,62,58,66,69,,,,,
Coaches,11,Nate,McMillan,54,HC,70,56,70,61,69,67,83,68,54,75,58,80,58,51,52,74,82,37,60,,,,,
Coaches,11,Popeye,Jones,48,AC,70,72,90,59,62,63,62,65,67,70,69,60,64,50,51,71,78,32,85,,,,,
Coaches,12,Doc,Rivers,57,HC,66,74,85,76,83,89,83,65,65,69,73,74,56,44,51,82,90,86,60,,,,,
Coaches,12,Sam,Cassell,49,AC,70,68,75,70,84,53,57,59,70,74,51,62,54,50,54,65,65,58,80,,,,,
Coaches,13,Frank,Vogel,43,HC,48,67,75,70,65,78,90,75,67,69,79,84,65,36,51,86,80,100,70,,,,,
Coaches,13,Jason,Kidd,43,HC,42,49,72,63,95,54,49,50,73,91,54,66,50,45,67,63,76,89,85,,USA,Kentucky,Kentucky,R
Coaches,14,J.B.,Bickerstaff,39,AC,80,70,55,72,78,53,53,50,71,72,52,54,68,61,58,53,63,35,55,,,,,
Coaches,14,Chad,Forcier,46,NA,23,56,25,69,89,66,38,58,63,72,63,74,75,19,19,13,42,57,83,,,,,
Coaches,15,Erik,Spoelstra,48,HC,75,79,80,72,68,84,81,75,62,64,60,71,74,34,75,85,79,35,85,,,,,
Coaches,15,Juwaun,Howard,45,AC,60,61,70,53,54,64,54,58,62,67,65,68,73,63,67,75,84,28,90,,,,,
Coaches,16,Mike,Budenholzer,49,HC,70,71,76,80,69,72,95,80,60,68,55,62,41,23,34,67,100,84,75,,,,,
Coaches,16,Darvin,Ham,45,AC,60,64,80,54,78,54,68,54,58,78,52,66,70,72,70,69,79,25,77,,,,,
Coaches,17,Ryan,Saunders,33,NA,75,59,90,67,43,87,70,64,38,11,65,63,54,48,49,82,27,67,79,,,,,
Coaches,17,Sam,Mitchell,55,AC,70,69,70,58,68,53,62,67,73,80,57,64,67,58,67,65,78,69,75,,,,,
Coaches,18,Alvin,Gentry,64,HC,74,63,85,68,75,84,82,72,73,72,67,79,65,48,43,87,83,77,75,,,,,
Coaches,18,Jeff,Bzdelik,66,AC,60,70,75,54,58,49,95,59,77,83,48,69,71,65,62,69,78,67,88,,,,,
Coaches,19,David,Fizdale,42,HC,74,73,88,78,75,80,88,78,61,70,65,82,57,53,66,80,85,45,75,,,,,
Coaches,19,Royal,Ivey,37,NA,16,45,27,41,21,47,48,46,56,62,48,87,60,48,88,40,25,99,80,,,,,
Coaches,20,Billy,Donovan,53,HC,49,87,75,78,71,84,82,64,77,73,67,72,58,32,34,76,90,54,65,,,,,
Coaches,20,Maurice,Cheeks,62,AC,60,70,75,54,58,49,53,59,77,83,48,69,71,65,62,69,78,67,88,,,,,
Coaches,21,Steve,Clifford,55,HC,57,56,72,60,65,75,80,59,53,61,80,85,49,55,54,73,80,12,70,,,,,
Coaches,21,MIke,Batiste,41,AC,75,72,65,53,57,64,56,60,59,63,73,72,69,74,69,62,67,39,68,,,,,
Coaches,22,Brett,Brown,57,HC,74,30,75,74,73,66,74,66,75,73,66,79,49,66,36,85,95,53,75,,,,,
Coaches,22,Kevin,Young,37,AC,55,70,60,48,54,41,42,56,74,77,69,78,70,52,60,71,80,8,53,,,,,
Coaches,23,Igor,Kokoskov,47,HC,55,60,80,62,70,64,59,54,82,75,71,65,59,43,29,89,80,25,90,,,,,
Coaches,23,Joe,Prunty,50,AC,63,49,65,58,63,47,59,53,62,61,53,58,57,72,69,71,80,47,70,,,,,
Coaches,24,Terry,Stotts,61,HC,46,52,80,67,73,71,63,62,75,73,65,62,52,32,36,73,80,58,70,,,,,
Coaches,24,Jay,Triano,60,AC,60,53,65,58,63,47,59,53,62,61,53,58,57,72,69,71,80,47,55,,,,,
Coaches,25,Dave,Joerger,46,HC,65,70,70,69,65,78,81,71,64,62,75,82,72,34,46,76,74,29,73,,,,,
Coaches,25,Bob,Thornton,57,AC,60,73,70,65,59,67,59,59,80,59,73,68,59,59,69,63,73,83,80,,,,,
Coaches,26,Gregg,Popovich,67,HC,95,92,41,84,95,81,92,84,70,57,63,66,36,63,30,89,94,87,55,,,,,
Coaches,26,Becky,Hammon,41,AC,65,65,60,59,56,64,58,69,53,56,58,64,58,49,52,69,68,41,60,,,,,
Coaches,27,Nick,Nurse,49,HC,80,85,70,84,60,78,88,89,67,60,53,51,80,74,80,56,72,70,90,,,,,
Coaches,27,Adrian,Griffin,45,NA,45,50,40,59,75,32,18,43,67,63,53,91,67,30,17,90,40,76,76,,,,,
Coaches,28,Quin,Snyder,52,HC,65,54,70,58,66,57,67,64,67,69,76,81,74,67,50,74,83,99,70,,,,,
Coaches,28,Johnnie,Bryant,43,AC,65,38,65,42,41,46,43,48,53,50,49,50,52,75,72,66,67,37,95,,,,,
Coaches,29,Scott,Brooks,51,HC,61,50,75,63,73,63,67,69,73,66,62,59,67,53,39,74,77,43,65,,,,,
Coaches,29,Maz,Trakh,57,AC,70,68,75,70,84,53,57,59,70,74,51,62,54,50,54,65,65,58,80,,,,,
Coaches,-1,Scott,Skiles,52,NA,62,33,70,61,65,67,71,65,71,68,65,68,50,47,27,68,75,4,70,,,,,
Coaches,-1,Dan,Collins,66,NA,70,71,75,70,70,75,70,75,65,67,68,69,73,57,57,86,83,10,60,,,,,
Coaches,-1,Byron,Scott,51,NA,75,82,75,73,69,64,68,73,67,68,61,70,68,64,64,71,75,81,70,,,,,
Coaches,-1,George,Karl,68,NA,70,56,85,82,81,64,61,69,51,70,63,56,68,50,42,79,85,44,60,,,,,
Coaches,-1,Shaq,Oneal,41,NA,80,68,95,58,52,66,69,57,71,52,74,75,53,51,52,86,88,50,80,,,,,
Coaches,-1,Jeff,Van Gundy,53,NA,70,70,70,65,65,68,73,58,61,61,60,64,62,63,62,67,67,37,65,,,,,
Coaches,-1,Pat,Riley,66,NA,90,95,90,88,92,96,87,92,64,56,64,58,65,62,45,86,84,64,55,,,,,
Coaches,-1,Hakeem,Olajuwon,49,NA,75,62,80,68,62,93,67,54,85,59,74,80,62,49,45,79,84,67,77,,,,,
Coaches,-1,Les,Rogers,66,NA,28,55,71,64,81,16,60,71,61,42,28,50,84,69,13,90,64,12,52,,,,,
Coaches,-1,Sal,Chavarria,61,NA,41,63,86,84,23,29,62,61,62,43,70,10,66,59,26,15,60,17,40,,,,,
Coaches,-1,Michale,Kennison,54,NA,43,47,43,50,61,18,77,44,14,19,73,75,90,64,78,36,70,56,68,,,,,
Coaches,-1,Jimmy,Cleamons,59,NA,60,55,65,54,49,64,58,54,64,52,72,71,68,62,68,62,79,73,64,,,,,
Coaches,-1,Sammie,Peters,65,NA,29,64,43,62,28,48,44,68,77,34,78,40,29,51,18,66,83,37,76,,,,,
Coaches,-1,Darren,Brannum,54,NA,21,47,60,55,20,73,64,20,46,67,42,85,10,38,22,60,39,79,61,,,,,
Coaches,-1,Keenan,Coulter,62,NA,60,41,34,63,61,21,34,47,12,77,21,56,56,56,33,78,34,36,43,,,,,
Coaches,-1,Jared,Coots,58,NA,61,55,64,78,16,72,35,61,26,90,84,34,54,25,24,89,10,19,76,,,,,
Coaches,-1,Sean,Braddy,47,NA,61,50,42,53,32,83,62,88,36,68,67,89,32,30,30,17,38,92,67,,,,,
Coaches,-1,Lucien,Rosenfeld,32,NA,70,38,72,44,55,45,51,52,51,30,34,32,51,70,32,53,25,2,17,,,,,
Coaches,-1,Felix,Rocants,29,NA,49,65,40,47,34,89,31,80,40,71,34,72,55,67,86,42,48,14,89,,,,,
Coaches,-1,Tai,Navarette,32,NA,34,42,80,76,39,17,24,65,18,16,35,34,27,34,53,70,32,75,88,,,,,
Coaches,-1,Neil,Fleischmann,60,NA,88,46,18,22,81,44,10,65,11,32,25,76,34,50,90,29,27,18,45,,,,,
Coaches,-1,Deandre,Maclin,42,NA,89,37,45,48,18,60,17,25,57,12,50,63,39,30,42,37,66,45,84,,,,,
Coaches,-1,Jonathan,Edmiston,44,NA,23,55,24,80,86,83,13,32,67,30,18,42,58,58,81,12,85,51,39,,,,,
Coaches,-1,Irwin,Alvares,29,NA,74,54,61,39,22,26,64,86,74,83,46,70,72,17,53,41,74,14,87,,,,,
Coaches,-1,Andrew,Markert,60,NA,65,52,15,25,29,74,80,75,45,12,39,24,14,34,33,70,56,20,30,,,,,
Coaches,-1,Edwin,Clemens,52,NA,44,60,17,72,83,47,75,77,27,21,90,37,83,54,44,43,46,100,86,,,,,
Coaches,-1,Tobias,Whiang,43,NA,49,64,40,57,70,56,70,75,52,19,24,42,28,89,29,47,43,98,82,,,,,
Coaches,-1,Jose,Corn,52,NA,63,53,52,50,83,66,57,50,38,18,13,41,41,20,56,60,54,5,82,,,,,
Coaches,-1,Andrew,Therrien,42,NA,72,40,66,74,25,30,25,81,58,15,15,16,42,79,51,19,74,24,63,,,,,
Coaches,-1,Otto,Alberto,39,NA,88,74,19,43,81,78,25,78,54,46,75,52,90,41,17,75,38,96,34,,,,,
Coaches,-1,Edison,Southworth,66,NA,90,58,17,80,15,73,51,29,33,60,44,50,59,55,60,78,51,78,79,,,,,
Coaches,-1,Robin,Derrico,54,NA,14,44,73,39,55,81,53,22,59,14,79,73,44,71,68,23,58,26,16,,,,,
Coaches,-1,Mathew,Sistrunk,40,NA,21,57,54,76,55,29,87,20,81,73,61,14,11,74,28,61,86,41,24,,,,,
Coaches,-1,Chris,Michel,40,NA,16,46,66,24,44,24,48,49,10,38,40,25,81,83,75,51,67,2,84,,,,,
Coaches,-1,Martin,Malone,49,NA,66,62,75,69,67,75,82,70,71,66,82,76,46,41,60,87,78,81,75,,,,,
Coaches,-1,Lynn,Turberville,65,NA,64,54,75,22,25,90,39,15,88,73,76,55,83,52,48,74,47,22,51,,,,,
Coaches,-1,Jordan,Range,36,NA,47,46,45,56,83,24,61,15,44,87,36,73,82,81,69,13,49,88,59,,,,,
Coaches,-1,Michale,Giglio,34,NA,81,64,38,77,86,65,63,42,54,88,33,40,76,88,87,69,44,36,58,,,,,
Coaches,-1,Robbie,Selleck,55,NA,13,50,65,22,90,81,25,48,82,78,21,21,79,79,51,61,76,68,29,,,,,
Coaches,-1,Chauncy,Nowakowski,54,NA,69,60,72,36,70,58,24,77,62,47,79,49,34,68,61,13,34,49,33,,,,,
Coaches,-1,Israel,Dressler,65,NA,73,61,36,22,50,42,55,90,50,68,21,55,42,34,77,89,69,100,26,,,,,
Coaches,-1,Herb,Guice,30,NA,54,48,88,25,36,67,64,32,32,61,68,23,81,18,77,84,12,45,68,,,,,
Coaches,-1,Esteban,Rencher,41,NA,60,58,26,86,55,63,45,48,80,84,11,51,12,59,35,42,35,56,34,,,,,
Coaches,-1,Donny,Denis,63,NA,81,41,18,46,13,10,59,15,27,88,68,52,39,34,90,23,52,58,29,,,,,
Coaches,-1,Gene,Jewell,61,NA,24,49,70,45,37,60,32,19,38,78,44,16,35,40,21,71,75,5,52,,,,,
Coaches,-1,Everett,Grosso,47,NA,15,57,89,90,17,81,42,54,15,80,16,59,26,40,35,45,19,31,67,,,,,
Coaches,-1,Caleb,Eastwood,36,NA,29,47,78,46,43,16,13,82,63,26,28,65,65,40,21,33,49,91,34,,,,,
Coaches,-1,Paul,Mutumbo,37,NA,55,59,75,51,49,73,72,53,63,59,71,73,63,72,68,58,74,97,72,,,,,
Coaches,-1,Fred,Hoiberg,46,NA,67,76,70,75,85,79,95,80,55,80,66,80,56,45,37,80,95,38,60,,,,,
Coaches,-1,Tyronn,Lue,39,NA,72,84,70,53,61,54,72,62,58,61,52,74,71,68,67,68,73,32,75,,,,,
Coaches,-1,Earl,Watson,39,NA,57,57,80,78,71,65,66,56,81,77,69,70,54,43,29,89,80,25,73,,,,,
Coaches,-1,Kurt,Rambis,60,NA,62,60,75,58,68,73,68,63,57,61,77,72,69,74,69,67,84,44,70,,,,,
Coaches,-1,Tom,Thibodeau,58,NA,86,71,70,75,85,79,95,80,55,80,66,80,56,45,37,80,95,38,60,,,,,
Coaches,-1,Jeff,Hornacek,55,NA,75,70,75,82,85,85,65,76,65,62,63,65,62,69,65,80,72,76,70,,,,,
Coaches,-1,Stan,Van Gundy,59,NA,80,61,70,65,70,65,70,55,53,85,60,80,48,46,70,65,75,98,60,,,,,
Coaches,-1,Frank,Vogel,45,NA,48,67,75,70,65,78,90,75,67,69,79,84,65,36,51,86,80,100,70,,,,,
Coaches,-1,Jason,Kidd,45,NA,42,49,72,63,95,54,49,50,73,91,54,66,50,45,67,63,76,89,85,,,,,
Coaches,-1,Brian,Shaw,52,NA,68,70,55,72,78,53,53,50,71,72,52,54,68,61,58,53,63,35,70,,,,,
